{
"type": "FeatureCollection",
"name": "Arica",
"crs": { "type": "name", "properties": { "name": "urn:ogc:def:crs:OGC:1.3:CRS84" } },
"features": [
{ "type": "Feature", "properties": { "zona": "1" }, "geometry": { "type": "Polygon", "coordinates": [ [ [ -70.313810404506199, -18.477858136888656 ], [ -70.31593684183413, -18.480254459046826 ], [ -70.316671732074397, -18.479651145873216 ], [ -70.317146133070636, -18.479147784123455 ], [ -70.317529775120221, -18.478692820421035 ], [ -70.318130045672902, -18.477980949414789 ], [ -70.318546910317309, -18.477466550668201 ], [ -70.319269263562745, -18.476526947176964 ], [ -70.319911985049657, -18.475805663490327 ], [ -70.320039702349476, -18.475661829960728 ], [ -70.319677442749907, -18.475493849844113 ], [ -70.319152877801045, -18.475250606722689 ], [ -70.318097082573061, -18.474423658632478 ], [ -70.317247875925119, -18.473894483208625 ], [ -70.31649102124851, -18.474784646680455 ], [ -70.315866318171629, -18.475496835816557 ], [ -70.315076958700175, -18.476396729650698 ], [ -70.314521592715337, -18.4770753001462 ], [ -70.313810404506199, -18.477858136888656 ] ] ] } },
{ "type": "Feature", "properties": { "zona": "2" }, "geometry": { "type": "Polygon", "coordinates": [ [ [ -70.30312001192631, -18.463927913059869 ], [ -70.303550710491933, -18.46431643353425 ], [ -70.304906486834383, -18.465975521173945 ], [ -70.304658060103094, -18.466290762842849 ], [ -70.307549286987566, -18.467597175297541 ], [ -70.308831008043711, -18.468136960368799 ], [ -70.310103014816718, -18.468827841050011 ], [ -70.311635332693342, -18.469711438084062 ], [ -70.31204602325775, -18.469989972638771 ], [ -70.314817138459645, -18.472441766854168 ], [ -70.317247875925119, -18.473894483208625 ], [ -70.318097082573061, -18.474423658632478 ], [ -70.319152877801045, -18.475250606722689 ], [ -70.319677442749907, -18.475493849844113 ], [ -70.320039702349476, -18.475661829960728 ], [ -70.321079781853129, -18.476350663446929 ], [ -70.321369958339673, -18.476641215120896 ], [ -70.32168089083072, -18.476952547974641 ], [ -70.322213053023788, -18.477485391401579 ], [ -70.323362185465299, -18.478312793361543 ], [ -70.324236398465061, -18.478659141921558 ], [ -70.324884920210167, -18.479002873061464 ], [ -70.325714431602563, -18.4796906371589 ], [ -70.32650280888862, -18.481093900616159 ], [ -70.3266324466843, -18.482017468547809 ], [ -70.326660940383476, -18.482223902505609 ], [ -70.327259006980853, -18.482321263025721 ], [ -70.327637343481541, -18.482382852176716 ], [ -70.329648413250197, -18.481817721493599 ], [ -70.330266965204842, -18.481582575598175 ], [ -70.331049871164012, -18.481412299542619 ], [ -70.331424050434379, -18.481658104418766 ], [ -70.331813535718993, -18.48176888730751 ], [ -70.332177701452395, -18.481622754365048 ], [ -70.332526832596443, -18.481584619621263 ], [ -70.33283615239192, -18.481343519806135 ], [ -70.333350382644952, -18.480736364621229 ], [ -70.333416201893101, -18.480536746471579 ], [ -70.333597131278353, -18.480578530417599 ], [ -70.333642777782927, -18.480200485762659 ], [ -70.333519136950997, -18.480010454851321 ], [ -70.333437478701583, -18.479807199881897 ], [ -70.333034858684385, -18.479615248037366 ], [ -70.332922317101321, -18.479709063417474 ], [ -70.332714032618995, -18.479613039464688 ], [ -70.33250357691584, -18.479733206546115 ], [ -70.332223647815994, -18.479825869572359 ], [ -70.331542048650576, -18.479631997333325 ], [ -70.331342730467298, -18.479602189576831 ], [ -70.331068462566435, -18.479561172830891 ], [ -70.330803432353036, -18.479559348402212 ], [ -70.330373050196883, -18.479353692398895 ], [ -70.330235324764729, -18.479177076580292 ], [ -70.330067937270172, -18.479175924321744 ], [ -70.329969480341006, -18.479256324009928 ], [ -70.329647025856914, -18.479416259083784 ], [ -70.329421806957498, -18.47961740198468 ], [ -70.329211079829577, -18.479764592961402 ], [ -70.329251841062586, -18.479872976423234 ], [ -70.329559803786253, -18.479766993479952 ], [ -70.330009155949199, -18.479472803454836 ], [ -70.330204712771859, -18.479447123848722 ], [ -70.330543463024085, -18.47962690555266 ], [ -70.330620874559997, -18.479679707588097 ], [ -70.330703211276003, -18.479815403038323 ], [ -70.330588227009244, -18.480152432686417 ], [ -70.330364500846912, -18.480204943922679 ], [ -70.330320211290939, -18.480447869802788 ], [ -70.330332124682911, -18.480650643850268 ], [ -70.330498969380898, -18.480705843549377 ], [ -70.330595255055513, -18.48084163421446 ], [ -70.330439780927477, -18.481043255532221 ], [ -70.330244766896598, -18.481014887560967 ], [ -70.33003471826666, -18.481094518203065 ], [ -70.329811399202057, -18.481106493681299 ], [ -70.329684365801327, -18.481254259489408 ], [ -70.328872204875111, -18.481559461677829 ], [ -70.328287849096228, -18.48168412704473 ], [ -70.327921232860035, -18.481796144329113 ], [ -70.32758686494607, -18.481753304558246 ], [ -70.327130077698456, -18.481398829520401 ], [ -70.325661831058724, -18.478969926612347 ], [ -70.325454768058535, -18.478752294410011 ], [ -70.325443126148855, -18.47852249413593 ], [ -70.326614228555925, -18.477417180139273 ], [ -70.327653075222344, -18.476573696803797 ], [ -70.32844165922937, -18.4759385326212 ], [ -70.329229185490306, -18.475183795834333 ], [ -70.329371931870156, -18.47486046077638 ], [ -70.329420021005831, -18.47423918121882 ], [ -70.329054056249404, -18.472811273035862 ], [ -70.327775786314334, -18.468498129264596 ], [ -70.327552738893857, -18.468483080187521 ], [ -70.327480958669128, -18.468685292213333 ], [ -70.327591328930836, -18.468807675493281 ], [ -70.327728375785412, -18.469051865699583 ], [ -70.327792828209155, -18.469579343025927 ], [ -70.327497186324393, -18.469847581045837 ], [ -70.327287952127776, -18.469846140800524 ], [ -70.327163497219317, -18.469737174959103 ], [ -70.327037006794839, -18.469830899802822 ], [ -70.328318053807109, -18.474231595717104 ], [ -70.323618608696108, -18.47618922288515 ], [ -70.321988729568361, -18.475228549893231 ], [ -70.321843219583144, -18.475010875904697 ], [ -70.321711935802043, -18.474703147353242 ], [ -70.321535471147939, -18.474522741509439 ], [ -70.321606437286775, -18.474401610494521 ], [ -70.321422629959955, -18.473882953592579 ], [ -70.321289011821335, -18.473807651669471 ], [ -70.321007455582432, -18.473204935825098 ], [ -70.320725580097587, -18.472567164232544 ], [ -70.32071040018252, -18.472167251807281 ], [ -70.32082837150837, -18.47188912746341 ], [ -70.323785377338098, -18.469901125557922 ], [ -70.323682792633747, -18.469602883389626 ], [ -70.323673588946548, -18.469516204033596 ], [ -70.32367608962717, -18.469314598695679 ], [ -70.323477777321685, -18.469258596924291 ], [ -70.319949815003255, -18.471540634288338 ], [ -70.319564301718401, -18.471601490321014 ], [ -70.319382415951637, -18.47155374893936 ], [ -70.319451092503968, -18.471405455118695 ], [ -70.31929204338023, -18.470995251874136 ], [ -70.316472930505284, -18.47202921545394 ], [ -70.315524218161414, -18.471527194573724 ], [ -70.314956804356001, -18.471538301483182 ], [ -70.31436749545658, -18.471063635789367 ], [ -70.314150301214823, -18.470708819424583 ], [ -70.313914378863799, -18.470307383618589 ], [ -70.313632336570819, -18.469719669606441 ], [ -70.313302306770325, -18.469131623350378 ], [ -70.312958124417989, -18.468041381627824 ], [ -70.312703847513419, -18.467556130341077 ], [ -70.312505754958508, -18.467210736435071 ], [ -70.311969788888334, -18.4670582776705 ], [ -70.311490100543139, -18.467036380156717 ], [ -70.311047308143017, -18.467163506814003 ], [ -70.310700864276654, -18.467254103934113 ], [ -70.310421696301489, -18.467335865874698 ], [ -70.310066121829792, -18.467379909468953 ], [ -70.309462413021421, -18.467282773566755 ], [ -70.308641696943425, -18.466812218512764 ], [ -70.307508278826205, -18.465939688216324 ], [ -70.306361362159976, -18.464499866830167 ], [ -70.305555991814899, -18.465368360523609 ], [ -70.30491960220246, -18.464120986075358 ], [ -70.304727660529124, -18.46374476078789 ], [ -70.304660033438381, -18.463579639842003 ], [ -70.304438688296628, -18.463039192289372 ], [ -70.304128081766947, -18.462280792851111 ], [ -70.304113014866218, -18.461831308274274 ], [ -70.30353035256833, -18.462472319216811 ], [ -70.303050919313364, -18.463147474970466 ], [ -70.303238539737862, -18.463458400221338 ], [ -70.303225076788152, -18.463731086722653 ], [ -70.30312001192631, -18.463927913059869 ] ] ] } },
{ "type": "Feature", "properties": { "zona": "3" }, "geometry": { "type": "Polygon", "coordinates": [ [ [ -70.31593684183413, -18.480254459046826 ], [ -70.316430956716687, -18.480764677118593 ], [ -70.318209770457656, -18.482601462417854 ], [ -70.320773103402132, -18.480030404218713 ], [ -70.321127242778729, -18.479675189138614 ], [ -70.321590701197621, -18.480057800797574 ], [ -70.321915313082357, -18.479594309872596 ], [ -70.322512349565187, -18.479211941279303 ], [ -70.322360934918336, -18.479012749734238 ], [ -70.322959262194487, -18.47858827175051 ], [ -70.323212100699408, -18.478553492706101 ], [ -70.323362185465299, -18.478312793361543 ], [ -70.322213053023788, -18.477485391401579 ], [ -70.32168089083072, -18.476952547974641 ], [ -70.321369958339673, -18.476641215120896 ], [ -70.321079781853129, -18.476350663446929 ], [ -70.320039702349476, -18.475661829960728 ], [ -70.319911985049657, -18.475805663490327 ], [ -70.319269263562745, -18.476526947176964 ], [ -70.318546910317309, -18.477466550668201 ], [ -70.318130045672902, -18.477980949414789 ], [ -70.317529775120221, -18.478692820421035 ], [ -70.317146133070636, -18.479147784123455 ], [ -70.316671732074397, -18.479651145873216 ], [ -70.31593684183413, -18.480254459046826 ] ] ] } },
{ "type": "Feature", "properties": { "zona": "4" }, "geometry": { "type": "Polygon", "coordinates": [ [ [ -70.317247875925119, -18.473894483208625 ], [ -70.314817138459645, -18.472441766854168 ], [ -70.31204602325775, -18.469989972638771 ], [ -70.311635332693342, -18.469711438084062 ], [ -70.311083222994583, -18.470897361352534 ], [ -70.310799185430241, -18.470925193761396 ], [ -70.310409147688091, -18.470965532736518 ], [ -70.310136828930368, -18.471193194854571 ], [ -70.308802971465596, -18.472045159930101 ], [ -70.30791096400371, -18.471343804953928 ], [ -70.307283526416498, -18.471964160045552 ], [ -70.306768976970773, -18.473036277832239 ], [ -70.306944655403214, -18.47329277793111 ], [ -70.309345683042878, -18.47599504572791 ], [ -70.309873276068686, -18.476573911835711 ], [ -70.31073320523997, -18.477517399415255 ], [ -70.311409385354722, -18.47816072161784 ], [ -70.311875998152942, -18.478604655683824 ], [ -70.31332092771288, -18.477343624554241 ], [ -70.313810404506199, -18.477858136888656 ], [ -70.314521592715337, -18.4770753001462 ], [ -70.315076958700175, -18.476396729650698 ], [ -70.315866318171629, -18.475496835816557 ], [ -70.31649102124851, -18.474784646680455 ], [ -70.317247875925119, -18.473894483208625 ] ] ] } },
{ "type": "Feature", "properties": { "zona": "5" }, "geometry": { "type": "Polygon", "coordinates": [ [ [ -70.289277963328516, -18.423220063978313 ], [ -70.288732548521878, -18.424723525072402 ], [ -70.288305735599209, -18.425551891957529 ], [ -70.287997461636778, -18.426036385808246 ], [ -70.287834429476362, -18.426643530558437 ], [ -70.287295731406303, -18.428009379786403 ], [ -70.286108368053235, -18.430788085324011 ], [ -70.284929591966389, -18.433567768650825 ], [ -70.284044226482678, -18.436343005513372 ], [ -70.283253093805413, -18.438773219585254 ], [ -70.282991752599315, -18.439719756612348 ], [ -70.287103834724732, -18.440556148218512 ], [ -70.291158928315539, -18.441380851896305 ], [ -70.291202279547392, -18.44116034611076 ], [ -70.291270738259158, -18.440857078085443 ], [ -70.29167213663861, -18.440657112863818 ], [ -70.293071529659798, -18.440516085160741 ], [ -70.293693990455338, -18.440463478490688 ], [ -70.294684440063151, -18.440312943176131 ], [ -70.295070790815075, -18.440275042254999 ], [ -70.29530968420012, -18.42404857322261 ], [ -70.295136341213023, -18.424026664795395 ], [ -70.295141767083734, -18.423263148111165 ], [ -70.289277963328516, -18.423220063978313 ] ] ] } },
{ "type": "Feature", "properties": { "zona": "6" }, "geometry": { "type": "Polygon", "coordinates": [ [ [ -70.295070790815075, -18.440275042254999 ], [ -70.294684440063151, -18.440312943176131 ], [ -70.293693990455338, -18.440463478490688 ], [ -70.293071529659798, -18.440516085160741 ], [ -70.29167213663861, -18.440657112863818 ], [ -70.291270738259158, -18.440857078085443 ], [ -70.291202279547392, -18.44116034611076 ], [ -70.291158928315539, -18.441380851896305 ], [ -70.287103834724732, -18.440556148218512 ], [ -70.282991752599315, -18.439719756612348 ], [ -70.282807225404667, -18.440620353539092 ], [ -70.282596452950628, -18.441904688139566 ], [ -70.282265206613928, -18.443032285739307 ], [ -70.281898646921832, -18.44443060765618 ], [ -70.281668681067714, -18.44522633362573 ], [ -70.281022539647097, -18.447566603858647 ], [ -70.280815699154729, -18.448817284978585 ], [ -70.280598896413238, -18.450055491220471 ], [ -70.280495866749476, -18.452440934941926 ], [ -70.283036429958926, -18.452639301066029 ], [ -70.286225550321262, -18.452587851583001 ], [ -70.286548170280014, -18.453145619101626 ], [ -70.288430490949565, -18.455231141230055 ], [ -70.289939300770698, -18.454126524232976 ], [ -70.290632078157117, -18.454739471005869 ], [ -70.291961418376005, -18.455909139192631 ], [ -70.294077771077838, -18.457614816061724 ], [ -70.294542816067434, -18.45790927684509 ], [ -70.29508990780009, -18.458255685771476 ], [ -70.295091687637836, -18.458078495893552 ], [ -70.295094373843199, -18.45781107516525 ], [ -70.2950996239083, -18.45728621822369 ], [ -70.295130964812785, -18.454153178341997 ], [ -70.295136536463687, -18.450577101551016 ], [ -70.295087029841866, -18.444091414821706 ], [ -70.295068854648065, -18.441709681312616 ], [ -70.295061630421628, -18.441187249928895 ], [ -70.295070790815075, -18.440275042254999 ] ] ] } },
{ "type": "Feature", "properties": { "zona": "7" }, "geometry": { "type": "Polygon", "coordinates": [ [ [ -70.281374577997127, -18.463769482322054 ], [ -70.281471975641921, -18.46470637953793 ], [ -70.281509523074718, -18.465069277235362 ], [ -70.281577688563331, -18.46623824193852 ], [ -70.281674388760692, -18.467025561460964 ], [ -70.281697204662549, -18.467211323998427 ], [ -70.282100016231027, -18.470490850601674 ], [ -70.283485906147263, -18.470300274878991 ], [ -70.284288706126688, -18.469900344259536 ], [ -70.28529578399565, -18.469096361825418 ], [ -70.291199094162664, -18.464478225595236 ], [ -70.285260557809607, -18.457787547108268 ], [ -70.284533706294241, -18.456971753561319 ], [ -70.284386560153493, -18.45702948296638 ], [ -70.284303422620013, -18.45854774056464 ], [ -70.284186131403814, -18.45893774785209 ], [ -70.283210628065902, -18.460729463098549 ], [ -70.282832957258307, -18.461292929803001 ], [ -70.282502007552964, -18.46173103159791 ], [ -70.281896707817097, -18.462579852940742 ], [ -70.281291551985063, -18.463373909454553 ], [ -70.281374577997127, -18.463769482322054 ] ] ] } },
{ "type": "Feature", "properties": { "zona": "8" }, "geometry": { "type": "Polygon", "coordinates": [ [ [ -70.305555991814899, -18.465368360523609 ], [ -70.306361362159976, -18.464499866830167 ], [ -70.305001848288597, -18.461291874249032 ], [ -70.304703755634677, -18.460247709271091 ], [ -70.304416650742922, -18.459470243945088 ], [ -70.303986608256665, -18.458242820225948 ], [ -70.303861968297724, -18.45687581859374 ], [ -70.301042201023506, -18.457541490047557 ], [ -70.298493802644316, -18.458143058653388 ], [ -70.298014513831177, -18.458256194147356 ], [ -70.297399453279169, -18.458582340774665 ], [ -70.297320165353383, -18.458603219568555 ], [ -70.297078207322286, -18.458718346204506 ], [ -70.29688234660361, -18.458735648179072 ], [ -70.298147531268526, -18.460308099077832 ], [ -70.29886339665282, -18.461018810196329 ], [ -70.30004568176814, -18.46189969958839 ], [ -70.301245076048446, -18.462551451735532 ], [ -70.302713890984265, -18.463561694194127 ], [ -70.30312001192631, -18.463927913059869 ], [ -70.303225076788152, -18.463731086722653 ], [ -70.303238539737862, -18.463458400221338 ], [ -70.303050919313364, -18.463147474970466 ], [ -70.30353035256833, -18.462472319216811 ], [ -70.304113014866218, -18.461831308274274 ], [ -70.304128081766947, -18.462280792851111 ], [ -70.304438688296628, -18.463039192289372 ], [ -70.304660033438381, -18.463579639842003 ], [ -70.304727660529124, -18.46374476078789 ], [ -70.30491960220246, -18.464120986075358 ], [ -70.305555991814899, -18.465368360523609 ] ] ] } },
{ "type": "Feature", "properties": { "zona": "9" }, "geometry": { "type": "Polygon", "coordinates": [ [ [ -70.29688234660361, -18.458735648179072 ], [ -70.296535078185698, -18.45895170973813 ], [ -70.296141167287161, -18.458673369423728 ], [ -70.295744191992625, -18.458346363492801 ], [ -70.295094373843199, -18.45781107516525 ], [ -70.295091687637836, -18.458078495893552 ], [ -70.29508990780009, -18.458255685771476 ], [ -70.295086815976831, -18.458563532963076 ], [ -70.295082157718539, -18.459027352124167 ], [ -70.295273695210327, -18.459839577343107 ], [ -70.296037930242875, -18.460818729508169 ], [ -70.291199094162664, -18.464478225595236 ], [ -70.298042838945946, -18.472427695463924 ], [ -70.301438741205601, -18.469753215184287 ], [ -70.302674090125606, -18.468718831074852 ], [ -70.30296578002087, -18.468540148109092 ], [ -70.302738508542831, -18.468264633463221 ], [ -70.303784676051492, -18.467399034341067 ], [ -70.304258775740621, -18.466797432693753 ], [ -70.304658060103094, -18.466290762842849 ], [ -70.304906486834383, -18.465975521173945 ], [ -70.303550710491933, -18.46431643353425 ], [ -70.30312001192631, -18.463927913059869 ], [ -70.302713890984265, -18.463561694194127 ], [ -70.301245076048446, -18.462551451735532 ], [ -70.30004568176814, -18.46189969958839 ], [ -70.29886339665282, -18.461018810196329 ], [ -70.298147531268526, -18.460308099077832 ], [ -70.29688234660361, -18.458735648179072 ] ] ] } },
{ "type": "Feature", "properties": { "zona": "10" }, "geometry": { "type": "Polygon", "coordinates": [ [ [ -70.306768976970773, -18.473036277832239 ], [ -70.30296578002087, -18.468540148109092 ], [ -70.302674090125606, -18.468718831074852 ], [ -70.301438741205601, -18.469753215184287 ], [ -70.298042838945946, -18.472427695463924 ], [ -70.299424321982016, -18.474059016298128 ], [ -70.300705392258365, -18.475517011770759 ], [ -70.300684896591818, -18.4759307233751 ], [ -70.301534643764484, -18.476961297589796 ], [ -70.301747481042966, -18.477116046543202 ], [ -70.301905691011513, -18.477220447328367 ], [ -70.302189324763148, -18.477118945821026 ], [ -70.302493938464025, -18.476614224803836 ], [ -70.30364620914699, -18.475620153401177 ], [ -70.303617333270296, -18.475450751621437 ], [ -70.304111051826766, -18.475003269223809 ], [ -70.305368846836956, -18.473852298530158 ], [ -70.305562464587581, -18.474049728554743 ], [ -70.306253007713991, -18.473466612056281 ], [ -70.306446833125847, -18.473664133797946 ], [ -70.306944655403214, -18.47329277793111 ], [ -70.306768976970773, -18.473036277832239 ] ] ] } },
{ "type": "Feature", "properties": { "zona": "11" }, "geometry": { "type": "Polygon", "coordinates": [ [ [ -70.311635332693342, -18.469711438084062 ], [ -70.310103014816718, -18.468827841050011 ], [ -70.308831008043711, -18.468136960368799 ], [ -70.307549286987566, -18.467597175297541 ], [ -70.304658060103094, -18.466290762842849 ], [ -70.304258775740621, -18.466797432693753 ], [ -70.303784676051492, -18.467399034341067 ], [ -70.302738508542831, -18.468264633463221 ], [ -70.30296578002087, -18.468540148109092 ], [ -70.306768976970773, -18.473036277832239 ], [ -70.307283526416498, -18.471964160045552 ], [ -70.30791096400371, -18.471343804953928 ], [ -70.308802971465596, -18.472045159930101 ], [ -70.310136828930368, -18.471193194854571 ], [ -70.310409147688091, -18.470965532736518 ], [ -70.310799185430241, -18.470925193761396 ], [ -70.311083222994583, -18.470897361352534 ], [ -70.311635332693342, -18.469711438084062 ] ] ] } },
{ "type": "Feature", "properties": { "zona": "12" }, "geometry": { "type": "Polygon", "coordinates": [ [ [ -70.295141767083734, -18.423263148111165 ], [ -70.295136341213023, -18.424026664795395 ], [ -70.29530968420012, -18.42404857322261 ], [ -70.295070790815075, -18.440275042254999 ], [ -70.295061630421628, -18.441187249928895 ], [ -70.295068854648065, -18.441709681312616 ], [ -70.296513015080947, -18.441722020737451 ], [ -70.296927378312958, -18.441595664844218 ], [ -70.297288302313817, -18.441344281085946 ], [ -70.297579688473988, -18.441000832974549 ], [ -70.298105670428754, -18.440552765341511 ], [ -70.298639337245646, -18.44036107503193 ], [ -70.299413908174756, -18.445271732177638 ], [ -70.29974822816078, -18.448194030494101 ], [ -70.300174417583776, -18.45191917296194 ], [ -70.302678114538949, -18.451048280101791 ], [ -70.30352557341115, -18.450780131226999 ], [ -70.303698627728508, -18.449398346190755 ], [ -70.304051885057191, -18.448349300555758 ], [ -70.304762844926984, -18.445808486350373 ], [ -70.305059541108903, -18.444703687335863 ], [ -70.305241448554412, -18.443653433881313 ], [ -70.305305233215321, -18.442989760944105 ], [ -70.306460918450966, -18.44071942134261 ], [ -70.308923077318937, -18.438227440820679 ], [ -70.310174159436698, -18.434989153687731 ], [ -70.31102297992787, -18.433888084340264 ], [ -70.313106582306318, -18.431172013146828 ], [ -70.315577626843861, -18.427794394400895 ], [ -70.313905916027863, -18.427413905235067 ], [ -70.308963976454592, -18.426568128038479 ], [ -70.30335093189673, -18.425523612552109 ], [ -70.303858913945177, -18.423905047671472 ], [ -70.304270768080841, -18.4232257248464 ], [ -70.304921783700294, -18.422366960605075 ], [ -70.295141767083734, -18.423263148111165 ] ] ] } },
{ "type": "Feature", "properties": { "zona": "13" }, "geometry": { "type": "Polygon", "coordinates": [ [ [ -70.291199094162664, -18.464478225595236 ], [ -70.28529578399565, -18.469096361825418 ], [ -70.287750635385478, -18.471796098030445 ], [ -70.291685764658098, -18.476305894869562 ], [ -70.292723202467329, -18.47752361836384 ], [ -70.293884195578116, -18.478886339913224 ], [ -70.295424770962285, -18.477685868499968 ], [ -70.298010258026025, -18.475671100958014 ], [ -70.297813630610079, -18.475365657689043 ], [ -70.299424321982016, -18.474059016298128 ], [ -70.298042838945946, -18.472427695463924 ], [ -70.291199094162664, -18.464478225595236 ] ] ] } },
{ "type": "Feature", "properties": { "zona": "14" }, "geometry": { "type": "Polygon", "coordinates": [ [ [ -70.291685764658098, -18.476305894869562 ], [ -70.287750635385478, -18.471796098030445 ], [ -70.28529578399565, -18.469096361825418 ], [ -70.284288706126688, -18.469900344259536 ], [ -70.283485906147263, -18.470300274878991 ], [ -70.282100016231027, -18.470490850601674 ], [ -70.281015194600258, -18.470640018685565 ], [ -70.279466674814955, -18.470852936336822 ], [ -70.27955328053568, -18.471868029132619 ], [ -70.280362204909579, -18.471849983699688 ], [ -70.28037917835573, -18.472253397052878 ], [ -70.280393585030808, -18.47259580245802 ], [ -70.280376174210105, -18.473596725307001 ], [ -70.280418790207435, -18.475590179616905 ], [ -70.280387603927508, -18.476403282614001 ], [ -70.281142207194321, -18.476429220366537 ], [ -70.281183798332577, -18.476973269785198 ], [ -70.281949531036389, -18.476862542749366 ], [ -70.281854385090185, -18.476291632527275 ], [ -70.282919724597335, -18.476130679835492 ], [ -70.283403949087656, -18.478510143403973 ], [ -70.284303535961371, -18.478414968964735 ], [ -70.284805795643337, -18.478114334204935 ], [ -70.285189291873067, -18.477730529872797 ], [ -70.286014069969468, -18.477109012916358 ], [ -70.286797878928809, -18.478040402391986 ], [ -70.287987468467279, -18.479453948528587 ], [ -70.288840050024845, -18.478571522351725 ], [ -70.289166197127287, -18.478307637722821 ], [ -70.289554747921642, -18.477999797208408 ], [ -70.28991472806004, -18.477706339870213 ], [ -70.290130272064459, -18.477530626703292 ], [ -70.290162111072121, -18.477504671244496 ], [ -70.290530762425476, -18.477204142263606 ], [ -70.290919970361301, -18.476886853459757 ], [ -70.291685764658098, -18.476305894869562 ] ] ] } },
{ "type": "Feature", "properties": { "zona": "15" }, "geometry": { "type": "Polygon", "coordinates": [ [ [ -70.28898727787363, -18.492394866257627 ], [ -70.28875030638595, -18.491475990984302 ], [ -70.288064204856056, -18.490647366161554 ], [ -70.28776417028773, -18.490335369953879 ], [ -70.28746922427716, -18.490028663526637 ], [ -70.287104199671674, -18.490262381383104 ], [ -70.285314368999167, -18.491408354873606 ], [ -70.284725675067364, -18.493253172378147 ], [ -70.283562625759373, -18.495326030234935 ], [ -70.283220856420712, -18.49440923291861 ], [ -70.282848505528293, -18.495207384545328 ], [ -70.282580219862993, -18.495628767059056 ], [ -70.281688069243799, -18.496567157539733 ], [ -70.280990726481107, -18.497283601764508 ], [ -70.280041362605758, -18.498234020964588 ], [ -70.279408296905117, -18.498883189823516 ], [ -70.278288618236189, -18.49999580817002 ], [ -70.27709477466307, -18.501294627346201 ], [ -70.276849122686698, -18.501759732213678 ], [ -70.276307019237407, -18.501962935032676 ], [ -70.275542847376173, -18.502249374902977 ], [ -70.275063031721103, -18.502429225528854 ], [ -70.274647933221004, -18.502584816785475 ], [ -70.274848848666053, -18.504173284075296 ], [ -70.275327721695291, -18.504479990095447 ], [ -70.276310033043458, -18.505046891076688 ], [ -70.27730993563965, -18.503863463446951 ], [ -70.27810003508462, -18.502905556320631 ], [ -70.279069313087575, -18.501730397007826 ], [ -70.280163423637902, -18.500475504668547 ], [ -70.280523458005106, -18.500618020908323 ], [ -70.280782651733333, -18.501203299873627 ], [ -70.281332406010904, -18.501650537563016 ], [ -70.280788453785874, -18.503023833803429 ], [ -70.281310422184376, -18.503835184750539 ], [ -70.282651889344862, -18.504466669110521 ], [ -70.284985697768491, -18.500222786006141 ], [ -70.286101766380085, -18.498193206746656 ], [ -70.287424144573222, -18.495769583021698 ], [ -70.288848164134066, -18.493149664814609 ], [ -70.28898727787363, -18.492394866257627 ] ] ] } },
{ "type": "Feature", "properties": { "zona": "16" }, "geometry": { "type": "Polygon", "coordinates": [ [ [ -70.28463772572124, -18.484904526475511 ], [ -70.284351441583013, -18.483584832502 ], [ -70.284157869793916, -18.482975320279373 ], [ -70.283795979596775, -18.481232214971829 ], [ -70.283537590404222, -18.479987613945081 ], [ -70.283403949087656, -18.478510143403973 ], [ -70.282919724597335, -18.476130679835492 ], [ -70.281854385090185, -18.476291632527275 ], [ -70.281949531036389, -18.476862542749366 ], [ -70.281183798332577, -18.476973269785198 ], [ -70.281142207194321, -18.476429220366537 ], [ -70.280387603927508, -18.476403282614001 ], [ -70.279555268519275, -18.477241278232409 ], [ -70.27840605771425, -18.478331437082822 ], [ -70.277538786783083, -18.479141671235048 ], [ -70.276623712267494, -18.480025326126864 ], [ -70.276259941143252, -18.480389555670367 ], [ -70.27515353980003, -18.481442832407872 ], [ -70.273737973350777, -18.483289528579267 ], [ -70.274829723150248, -18.483453743545983 ], [ -70.275394877332687, -18.483553897324757 ], [ -70.282532412666129, -18.484596925483622 ], [ -70.28463772572124, -18.484904526475511 ] ] ] } },
{ "type": "Feature", "properties": { "zona": "17" }, "geometry": { "type": "Polygon", "coordinates": [ [ [ -70.286731970009967, -18.488570391677261 ], [ -70.287155454244129, -18.488258725143606 ], [ -70.287399874488401, -18.4880788412386 ], [ -70.289241546428727, -18.486723419947872 ], [ -70.290419339379682, -18.485856575907857 ], [ -70.289176839443599, -18.484685455818578 ], [ -70.289080513131893, -18.484594662261934 ], [ -70.288144381171961, -18.48371229160438 ], [ -70.286513812487527, -18.484901404890056 ], [ -70.28489346944643, -18.486083031761524 ], [ -70.285193019435198, -18.487475977030918 ], [ -70.285702369955004, -18.48825684391106 ], [ -70.285883622220922, -18.488413187989551 ], [ -70.286166002660678, -18.488656761976163 ], [ -70.286428597441571, -18.4885465402932 ], [ -70.286553090869276, -18.488556328121938 ], [ -70.286731970009967, -18.488570391677261 ] ] ] } },
{ "type": "Feature", "properties": { "zona": "18" }, "geometry": { "type": "Polygon", "coordinates": [ [ [ -70.279249598887432, -18.492798269089821 ], [ -70.277679852509081, -18.493310367800238 ], [ -70.276711931521831, -18.493626125016142 ], [ -70.275806067731892, -18.493857743292661 ], [ -70.27415585419233, -18.494396291749094 ], [ -70.271345360438218, -18.495304748796002 ], [ -70.271917990545077, -18.497671905468209 ], [ -70.272203977261583, -18.497988966001778 ], [ -70.272708587990621, -18.498132478506559 ], [ -70.272886318209359, -18.498431288401264 ], [ -70.273373560543732, -18.498504660672292 ], [ -70.273570418326202, -18.498698571007978 ], [ -70.274275229218091, -18.498703419556673 ], [ -70.275179536582641, -18.498639620165616 ], [ -70.275886810216861, -18.498399414187695 ], [ -70.27628246087599, -18.498594692288052 ], [ -70.276495983532854, -18.498928757872093 ], [ -70.276616683103938, -18.499507254587954 ], [ -70.276456802414003, -18.50102908398204 ], [ -70.276289052315136, -18.50153557004235 ], [ -70.275870931738865, -18.50177776069614 ], [ -70.275579843440781, -18.501968310646433 ], [ -70.275562303035031, -18.502101567639297 ], [ -70.275542847376173, -18.502249374902977 ], [ -70.276307019237407, -18.501962935032676 ], [ -70.276849122686698, -18.501759732213678 ], [ -70.27709477466307, -18.501294627346201 ], [ -70.278288618236189, -18.49999580817002 ], [ -70.279408296905117, -18.498883189823516 ], [ -70.280041362605758, -18.498234020964588 ], [ -70.280990726481107, -18.497283601764508 ], [ -70.281688069243799, -18.496567157539733 ], [ -70.282580219862993, -18.495628767059056 ], [ -70.282848505528293, -18.495207384545328 ], [ -70.283220856420712, -18.49440923291861 ], [ -70.283562625759373, -18.495326030234935 ], [ -70.284725675067364, -18.493253172378147 ], [ -70.285314368999167, -18.491408354873606 ], [ -70.287104199671674, -18.490262381383104 ], [ -70.28746922427716, -18.490028663526637 ], [ -70.28710496688312, -18.489685574651197 ], [ -70.286888406696363, -18.489481598654269 ], [ -70.286915646266252, -18.488985419307532 ], [ -70.286894761569897, -18.488671321971704 ], [ -70.286731970009967, -18.488570391677261 ], [ -70.286553090869276, -18.488556328121938 ], [ -70.286428597441571, -18.4885465402932 ], [ -70.286166002660678, -18.488656761976163 ], [ -70.286071228562378, -18.488883987578831 ], [ -70.285993745787167, -18.489069755933485 ], [ -70.286212798556434, -18.489280103820867 ], [ -70.28557385030679, -18.489722488574479 ], [ -70.284441586281346, -18.490320031800678 ], [ -70.282169953082857, -18.491516999988654 ], [ -70.280810778605172, -18.492193711079164 ], [ -70.279249598887432, -18.492798269089821 ] ] ] } },
{ "type": "Feature", "properties": { "zona": "19" }, "geometry": { "type": "Polygon", "coordinates": [ [ [ -70.292306938957523, -18.484311870869117 ], [ -70.291344384979368, -18.483227491710053 ], [ -70.290479570143162, -18.48225536742461 ], [ -70.290168647207167, -18.481905860167988 ], [ -70.28997259212052, -18.481685474366675 ], [ -70.289923628399251, -18.481630434051919 ], [ -70.289210459918692, -18.480828752798772 ], [ -70.28874565536195, -18.480306254658775 ], [ -70.287987468467279, -18.479453948528587 ], [ -70.286797878928809, -18.478040402391986 ], [ -70.286014069969468, -18.477109012916358 ], [ -70.285189291873067, -18.477730529872797 ], [ -70.284805795643337, -18.478114334204935 ], [ -70.284303535961371, -18.478414968964735 ], [ -70.283403949087656, -18.478510143403973 ], [ -70.283537419060053, -18.479985656727528 ], [ -70.283888897295554, -18.479932567472225 ], [ -70.285791301729802, -18.481622318395289 ], [ -70.288144381171961, -18.48371229160438 ], [ -70.289080513131893, -18.484594662261934 ], [ -70.289176839443599, -18.484685455818578 ], [ -70.290419339379682, -18.485856575907857 ], [ -70.291516598440822, -18.484958646418619 ], [ -70.292306938957523, -18.484311870869117 ] ] ] } },
{ "type": "Feature", "properties": { "zona": "20" }, "geometry": { "type": "Polygon", "coordinates": [ [ [ -70.287987468467279, -18.479453948528587 ], [ -70.28874565536195, -18.480306254658775 ], [ -70.289210459918692, -18.480828752798772 ], [ -70.289923628399251, -18.481630434051919 ], [ -70.28997259212052, -18.481685474366675 ], [ -70.290168647207167, -18.481905860167988 ], [ -70.290479570143162, -18.48225536742461 ], [ -70.291344384979368, -18.483227491710053 ], [ -70.292306938957523, -18.484311870869117 ], [ -70.292496423295589, -18.484161797989277 ], [ -70.292838929223421, -18.483890532081944 ], [ -70.293755504640046, -18.483267134703482 ], [ -70.294624668309439, -18.482675975818022 ], [ -70.29514088610172, -18.482324868246113 ], [ -70.296018730709932, -18.48172779244479 ], [ -70.295954382064991, -18.481536033446499 ], [ -70.295957436812841, -18.481231964183738 ], [ -70.294934287345669, -18.480074404449415 ], [ -70.294907364079862, -18.48004394399711 ], [ -70.294486915261899, -18.479568254494225 ], [ -70.293884195578116, -18.478886339913224 ], [ -70.292723202467329, -18.47752361836384 ], [ -70.291685764658098, -18.476305894869562 ], [ -70.290919970361301, -18.476886853459757 ], [ -70.290530762425476, -18.477204142263606 ], [ -70.290162111072121, -18.477504671244496 ], [ -70.290130272064459, -18.477530626703292 ], [ -70.28991472806004, -18.477706339870213 ], [ -70.289554747921642, -18.477999797208408 ], [ -70.289166197127287, -18.478307637722821 ], [ -70.288840050024845, -18.478571522351725 ], [ -70.287987468467279, -18.479453948528587 ] ] ] } },
{ "type": "Feature", "properties": { "zona": "21" }, "geometry": { "type": "Polygon", "coordinates": [ [ [ -70.292306938957523, -18.484311870869117 ], [ -70.293179327669023, -18.485049028564486 ], [ -70.293249724694618, -18.485427354637821 ], [ -70.293257264280854, -18.485467873589265 ], [ -70.293265659215535, -18.485512989293799 ], [ -70.293307349308051, -18.4857370380101 ], [ -70.293406169802239, -18.486268111125455 ], [ -70.293461266073436, -18.486813278395971 ], [ -70.293500807941058, -18.487204534888878 ], [ -70.293570298515647, -18.48789212023204 ], [ -70.293696410362273, -18.487860612317409 ], [ -70.294065685521815, -18.487768351686956 ], [ -70.294796051770547, -18.487508505364925 ], [ -70.295912248687145, -18.48717244430599 ], [ -70.296024065282069, -18.487138778489616 ], [ -70.296619942020712, -18.486959370203518 ], [ -70.298094704514583, -18.486515334954689 ], [ -70.299968531345968, -18.485951126160057 ], [ -70.300578947584938, -18.485779786673348 ], [ -70.300636598646349, -18.485763604314005 ], [ -70.301033008324822, -18.485652333587431 ], [ -70.299364366656889, -18.483944555704571 ], [ -70.299025563682235, -18.483597800231983 ], [ -70.298009198534942, -18.482557565993297 ], [ -70.297250636455573, -18.48165194309717 ], [ -70.29710793197421, -18.481792620872479 ], [ -70.296847859904176, -18.482048998533742 ], [ -70.296648177878524, -18.482047624531706 ], [ -70.296322013823271, -18.481849563961514 ], [ -70.296018730709932, -18.48172779244479 ], [ -70.29514088610172, -18.482324868246113 ], [ -70.294624668309439, -18.482675975818022 ], [ -70.293755504640046, -18.483267134703482 ], [ -70.292838929223421, -18.483890532081944 ], [ -70.292496423295589, -18.484161797989277 ], [ -70.292306938957523, -18.484311870869117 ] ] ] } },
{ "type": "Feature", "properties": { "zona": "22" }, "geometry": { "type": "Polygon", "coordinates": [ [ [ -70.309490694911673, -18.478655692744692 ], [ -70.308253154437566, -18.479796124264169 ], [ -70.306508772671975, -18.481417208279527 ], [ -70.305235169183987, -18.482515514480799 ], [ -70.306067828595133, -18.483375376196392 ], [ -70.306394455396074, -18.483712670112439 ], [ -70.306933058715288, -18.484268859037122 ], [ -70.307135490772865, -18.484277246078648 ], [ -70.308242054608698, -18.484056306771855 ], [ -70.310405122625312, -18.483624403130598 ], [ -70.313024743536417, -18.482492766047571 ], [ -70.312129635278595, -18.481545975662353 ], [ -70.311131481684214, -18.480372847352459 ], [ -70.309490694911673, -18.478655692744692 ] ] ] } },
{ "type": "Feature", "properties": { "zona": "23" }, "geometry": { "type": "Polygon", "coordinates": [ [ [ -70.293696410362273, -18.487860612317409 ], [ -70.293570298515647, -18.48789212023204 ], [ -70.293500807941058, -18.487204534888878 ], [ -70.293461266073436, -18.486813278395971 ], [ -70.293406169802239, -18.486268111125455 ], [ -70.293307349308051, -18.4857370380101 ], [ -70.293265659215535, -18.485512989293799 ], [ -70.293257264280854, -18.485467873589265 ], [ -70.293249724694618, -18.485427354637821 ], [ -70.293179327669023, -18.485049028564486 ], [ -70.292306938957523, -18.484311870869117 ], [ -70.291516598440822, -18.484958646418619 ], [ -70.290419339379682, -18.485856575907857 ], [ -70.289241546428727, -18.486723419947872 ], [ -70.287399874488401, -18.4880788412386 ], [ -70.287155454244129, -18.488258725143606 ], [ -70.286731970009967, -18.488570391677261 ], [ -70.286894761569897, -18.488671321971704 ], [ -70.286915646266252, -18.488985419307532 ], [ -70.286888406696363, -18.489481598654269 ], [ -70.28710496688312, -18.489685574651197 ], [ -70.28746922427716, -18.490028663526637 ], [ -70.28776417028773, -18.490335369953879 ], [ -70.288064204856056, -18.490647366161554 ], [ -70.28875030638595, -18.491475990984302 ], [ -70.28898727787363, -18.492394866257627 ], [ -70.290553104520768, -18.492414631576864 ], [ -70.291333059101987, -18.492680906589857 ], [ -70.292255196268442, -18.492995717141529 ], [ -70.292842356142827, -18.493176606086546 ], [ -70.294021914471585, -18.493539991058213 ], [ -70.295153091321808, -18.493455314905937 ], [ -70.296334767684627, -18.49336685125304 ], [ -70.296916406285547, -18.49300412025795 ], [ -70.296236206893312, -18.491945840357985 ], [ -70.295876690227388, -18.491386484086604 ], [ -70.295446741531762, -18.490609525629157 ], [ -70.294997579320963, -18.489797837331981 ], [ -70.29467260027387, -18.489314002614968 ], [ -70.294326442649634, -18.488798633006201 ], [ -70.293696410362273, -18.487860612317409 ] ] ] } },
{ "type": "Feature", "properties": { "zona": "24" }, "geometry": { "type": "Polygon", "coordinates": [ [ [ -70.299968531345968, -18.485951126160057 ], [ -70.300843930461923, -18.488107629737005 ], [ -70.301774931876665, -18.490384112665783 ], [ -70.302633299210072, -18.490169034079194 ], [ -70.303005350255944, -18.490008954093582 ], [ -70.303353971818169, -18.489811524002576 ], [ -70.304625746209311, -18.48881906763032 ], [ -70.30491346507614, -18.48819723286562 ], [ -70.305466362323742, -18.487759473100617 ], [ -70.305928563947603, -18.487521265588498 ], [ -70.306639107735108, -18.486829310111595 ], [ -70.307006890314355, -18.486471145868254 ], [ -70.307418973346458, -18.48606696330857 ], [ -70.307705502802335, -18.485785916411054 ], [ -70.307402434842444, -18.484961669683475 ], [ -70.307291529111765, -18.484677316887751 ], [ -70.307135490772865, -18.484277246078648 ], [ -70.306933058715288, -18.484268859037122 ], [ -70.303573893345742, -18.484916165150633 ], [ -70.301033008324822, -18.485652333587431 ], [ -70.300636598646349, -18.485763604314005 ], [ -70.300578947584938, -18.485779786673348 ], [ -70.299968531345968, -18.485951126160057 ] ] ] } },
{ "type": "Feature", "properties": { "zona": "25" }, "geometry": { "type": "Polygon", "coordinates": [ [ [ -70.297403477559172, -18.481501272301408 ], [ -70.298129688157161, -18.480559224211731 ], [ -70.298768258288064, -18.479730853957783 ], [ -70.299578417124351, -18.479937757980252 ], [ -70.300167618294935, -18.479840280993457 ], [ -70.300365757317678, -18.479641930543583 ], [ -70.300471664467764, -18.47913439477815 ], [ -70.300577614571978, -18.478526943248102 ], [ -70.300767897660492, -18.478155909417445 ], [ -70.301144064098267, -18.477551131097119 ], [ -70.301747481042966, -18.477116046543202 ], [ -70.301534643764484, -18.476961297589796 ], [ -70.300684896591818, -18.4759307233751 ], [ -70.300705392258365, -18.475517011770759 ], [ -70.299424321982016, -18.474059016298128 ], [ -70.297813630610079, -18.475365657689043 ], [ -70.298010258026025, -18.475671100958014 ], [ -70.295424770962285, -18.477685868499968 ], [ -70.293884195578116, -18.478886339913224 ], [ -70.294486915261899, -18.479568254494225 ], [ -70.294907364079862, -18.48004394399711 ], [ -70.294934287345669, -18.480074404449415 ], [ -70.295957436812841, -18.481231964183738 ], [ -70.295954382064991, -18.481536033446499 ], [ -70.296018730709932, -18.48172779244479 ], [ -70.296322013823271, -18.481849563961514 ], [ -70.296648177878524, -18.482047624531706 ], [ -70.296847859904176, -18.482048998533742 ], [ -70.29710793197421, -18.481792620872479 ], [ -70.297250636455573, -18.48165194309717 ], [ -70.297403477559172, -18.481501272301408 ] ] ] } },
{ "type": "Feature", "properties": { "zona": "26" }, "geometry": { "type": "Polygon", "coordinates": [ [ [ -70.306508772671975, -18.481417208279527 ], [ -70.305303177159473, -18.480145273521071 ], [ -70.304587757356416, -18.479285704248579 ], [ -70.303580751360968, -18.478189650179441 ], [ -70.302560043069931, -18.477525312765248 ], [ -70.302189324763148, -18.477118945821026 ], [ -70.301905691011513, -18.477220447328367 ], [ -70.301747481042966, -18.477116046543202 ], [ -70.301144064098267, -18.477551131097119 ], [ -70.300767897660492, -18.478155909417445 ], [ -70.300577614571978, -18.478526943248102 ], [ -70.300471664467764, -18.47913439477815 ], [ -70.300365757317678, -18.479641930543583 ], [ -70.300167618294935, -18.479840280993457 ], [ -70.299578417124351, -18.479937757980252 ], [ -70.298768258288064, -18.479730853957783 ], [ -70.298129688157161, -18.480559224211731 ], [ -70.297403477559172, -18.481501272301408 ], [ -70.297250636455573, -18.48165194309717 ], [ -70.298009198534942, -18.482557565993297 ], [ -70.299025563682235, -18.483597800231983 ], [ -70.299364366656889, -18.483944555704571 ], [ -70.301033008324822, -18.485652333587431 ], [ -70.303573893345742, -18.484916165150633 ], [ -70.306933058715288, -18.484268859037122 ], [ -70.306394455396074, -18.483712670112439 ], [ -70.306067828595133, -18.483375376196392 ], [ -70.305235169183987, -18.482515514480799 ], [ -70.306508772671975, -18.481417208279527 ] ] ] } },
{ "type": "Feature", "properties": { "zona": "27" }, "geometry": { "type": "Polygon", "coordinates": [ [ [ -70.309490694911673, -18.478655692744692 ], [ -70.310180702442977, -18.47802346937252 ], [ -70.31073320523997, -18.477517399415255 ], [ -70.309873276068686, -18.476573911835711 ], [ -70.309345683042878, -18.47599504572791 ], [ -70.306944655403214, -18.47329277793111 ], [ -70.306446833125847, -18.473664133797946 ], [ -70.306253007713991, -18.473466612056281 ], [ -70.305562464587581, -18.474049728554743 ], [ -70.305368846836956, -18.473852298530158 ], [ -70.304111051826766, -18.475003269223809 ], [ -70.303617333270296, -18.475450751621437 ], [ -70.30364620914699, -18.475620153401177 ], [ -70.302493938464025, -18.476614224803836 ], [ -70.302189324763148, -18.477118945821026 ], [ -70.302560043069931, -18.477525312765248 ], [ -70.303580751360968, -18.478189650179441 ], [ -70.304587757356416, -18.479285704248579 ], [ -70.305303177159473, -18.480145273521071 ], [ -70.306508772671975, -18.481417208279527 ], [ -70.308253154437566, -18.479796124264169 ], [ -70.309490694911673, -18.478655692744692 ] ] ] } },
{ "type": "Feature", "properties": { "zona": "28" }, "geometry": { "type": "Polygon", "coordinates": [ [ [ -70.313974600914662, -18.499051137782129 ], [ -70.315521163376658, -18.499063401643131 ], [ -70.315619168954683, -18.4965790274453 ], [ -70.315894749378174, -18.495116440289554 ], [ -70.31572817626072, -18.493584950876286 ], [ -70.314397223596785, -18.492095398904922 ], [ -70.313060328851705, -18.491875221128097 ], [ -70.313442046631181, -18.490771571854271 ], [ -70.313642165285941, -18.490199355876378 ], [ -70.313838470641386, -18.489054956911644 ], [ -70.31387585205357, -18.488840859873697 ], [ -70.31423043412282, -18.488577010912284 ], [ -70.314495716075484, -18.488543994730101 ], [ -70.315369355398644, -18.488123976717379 ], [ -70.3158382561748, -18.487474992485446 ], [ -70.315963907373074, -18.486673018974127 ], [ -70.316228943848472, -18.486325753044746 ], [ -70.317232507403375, -18.485005662477207 ], [ -70.317628446231666, -18.484484836639947 ], [ -70.317174528472066, -18.484165342804602 ], [ -70.315947467748529, -18.484384443451077 ], [ -70.31516422149511, -18.484679032625337 ], [ -70.314741971895145, -18.484236231145726 ], [ -70.314056226235124, -18.483517101417483 ], [ -70.313695556451179, -18.48318322632219 ], [ -70.313556682260383, -18.48324192076911 ], [ -70.311711654125361, -18.484021699054928 ], [ -70.311358189638028, -18.484171083648143 ], [ -70.309240816504058, -18.485127077945002 ], [ -70.3084801698338, -18.485383467032054 ], [ -70.308096125192222, -18.485505789404282 ], [ -70.307705502802335, -18.485785916411054 ], [ -70.307418973346458, -18.48606696330857 ], [ -70.307006890314355, -18.486471145868254 ], [ -70.306639107735108, -18.486829310111595 ], [ -70.305928563947603, -18.487521265588498 ], [ -70.305466362323742, -18.487759473100617 ], [ -70.30491346507614, -18.48819723286562 ], [ -70.304625746209311, -18.48881906763032 ], [ -70.303353971818169, -18.489811524002576 ], [ -70.303005350255944, -18.490008954093582 ], [ -70.302633299210072, -18.490169034079194 ], [ -70.301774931876665, -18.490384112665783 ], [ -70.300568780173109, -18.490588767069934 ], [ -70.302645510315315, -18.492903393369925 ], [ -70.302627623277871, -18.493258507373682 ], [ -70.303831566755775, -18.494968791750082 ], [ -70.304748545023116, -18.49662813858464 ], [ -70.305679881951463, -18.497442460952023 ], [ -70.306073299005774, -18.497786444638567 ], [ -70.311312975867963, -18.501809955206699 ], [ -70.313974600914662, -18.499051137782129 ] ] ] } },
{ "type": "Feature", "properties": { "zona": "29" }, "geometry": { "type": "Polygon", "coordinates": [ [ [ -70.317600024565238, -18.509858491822268 ], [ -70.317401411842198, -18.509262662317841 ], [ -70.317879408727435, -18.507968936334429 ], [ -70.318177891991795, -18.507880919909805 ], [ -70.318293827393376, -18.507449376804022 ], [ -70.318667248168595, -18.507307833178004 ], [ -70.318799248484922, -18.507128599159191 ], [ -70.318914278954011, -18.506787119470822 ], [ -70.318973694451699, -18.506427241948067 ], [ -70.319216562712867, -18.506320827566004 ], [ -70.319495723378026, -18.506304734737384 ], [ -70.319683700579859, -18.506107870591066 ], [ -70.31975776843943, -18.505871384826367 ], [ -70.319706280703471, -18.50571170924799 ], [ -70.319541245588738, -18.505476385659932 ], [ -70.319488707224011, -18.505151763729845 ], [ -70.319546855841523, -18.504917975606944 ], [ -70.3201701089707, -18.504018257548069 ], [ -70.319014727744374, -18.501866060953425 ], [ -70.317870017784401, -18.500706882610729 ], [ -70.316812195847675, -18.499635669430752 ], [ -70.316690482628232, -18.498883587629649 ], [ -70.315521163376658, -18.499063401643131 ], [ -70.313974600914662, -18.499051137782129 ], [ -70.311312975867963, -18.501809955206699 ], [ -70.306032589276199, -18.506707919998782 ], [ -70.307259592158871, -18.50785548764588 ], [ -70.308931256821836, -18.509532241585745 ], [ -70.310786749990115, -18.516962044338985 ], [ -70.313669649610944, -18.518995697635706 ], [ -70.317447973249884, -18.51977584137807 ], [ -70.319377064240399, -18.520426994853764 ], [ -70.319486557197664, -18.520175165561518 ], [ -70.319293356095827, -18.519850968934211 ], [ -70.319045980851712, -18.519595719128052 ], [ -70.318491097709511, -18.519285679066734 ], [ -70.318410653457548, -18.519053829119443 ], [ -70.318737405076106, -18.518837049083402 ], [ -70.318702560599831, -18.518602639559752 ], [ -70.318406429888711, -18.5184564966181 ], [ -70.318354072684699, -18.518113887376174 ], [ -70.317902326842614, -18.517882763298619 ], [ -70.317596776202393, -18.517586293557745 ], [ -70.317288381495644, -18.516809602748214 ], [ -70.317293268194774, -18.5163232779074 ], [ -70.317409746837484, -18.515837719795719 ], [ -70.317038859586717, -18.515727086756442 ], [ -70.316743633901154, -18.515490880771306 ], [ -70.316562172038289, -18.515039296421381 ], [ -70.316557191195429, -18.514585472319176 ], [ -70.31662538852774, -18.51430117905414 ], [ -70.316907083187019, -18.514032915064785 ], [ -70.316648511875982, -18.513850999767101 ], [ -70.316705936729505, -18.513689272897654 ], [ -70.317283482995776, -18.513374412319028 ], [ -70.317641480078294, -18.513137290526814 ], [ -70.31760717853345, -18.512848835981217 ], [ -70.317463456881484, -18.51234346328312 ], [ -70.31743799433967, -18.511872370570913 ], [ -70.317471420206502, -18.511550912553243 ], [ -70.317719175156142, -18.510958161325686 ], [ -70.317600024565238, -18.509858491822268 ] ] ] } },
{ "type": "Feature", "properties": { "zona": "30" }, "geometry": { "type": "Polygon", "coordinates": [ [ [ -70.3201701089707, -18.504018257548069 ], [ -70.321846655541151, -18.50187131302026 ], [ -70.322095857598825, -18.501134418973923 ], [ -70.322753686750161, -18.500454379432931 ], [ -70.323501613558477, -18.500063197871238 ], [ -70.324046222058186, -18.499544510431601 ], [ -70.324464599471796, -18.498858387254948 ], [ -70.324765999643432, -18.498252375042348 ], [ -70.324920398555818, -18.497694965523177 ], [ -70.324904152421453, -18.497460655073613 ], [ -70.324813692706925, -18.497207818133692 ], [ -70.324815502320689, -18.497027677325367 ], [ -70.324613450801252, -18.496774071603593 ], [ -70.324766040055678, -18.496396798932793 ], [ -70.324768573505864, -18.496144600557084 ], [ -70.324957093282364, -18.495893682058533 ], [ -70.325311553068332, -18.495788029246107 ], [ -70.32553274611287, -18.495987721869632 ], [ -70.325772899716142, -18.496151513933629 ], [ -70.326218181177993, -18.496262671638924 ], [ -70.326441726705042, -18.496228179617745 ], [ -70.326705907697104, -18.495851673894492 ], [ -70.32667305340776, -18.495419076121671 ], [ -70.326861392178671, -18.495186170846232 ], [ -70.326958366385284, -18.494790496245397 ], [ -70.326644180160599, -18.494590162064338 ], [ -70.326366286425298, -18.494480155537683 ], [ -70.326052824048531, -18.494207763487566 ], [ -70.325906749358964, -18.493936523254952 ], [ -70.32592842425737, -18.493630405939516 ], [ -70.326117124904812, -18.493361469267533 ], [ -70.326418141140948, -18.493021242296113 ], [ -70.326810340954935, -18.492861800170477 ], [ -70.326956777578246, -18.493097013111271 ], [ -70.327046513539727, -18.493421914030549 ], [ -70.327250917518896, -18.493441336805919 ], [ -70.327416676602354, -18.493604619203548 ], [ -70.327843359387884, -18.493715650539936 ], [ -70.327992872252636, -18.493644616993919 ], [ -70.328327828567197, -18.493628907074335 ], [ -70.328533137323348, -18.493558257585928 ], [ -70.328481503345571, -18.493143540462096 ], [ -70.328391043530658, -18.492890697107683 ], [ -70.329028101700246, -18.492426671762381 ], [ -70.329198927435641, -18.492085546728557 ], [ -70.329240467506494, -18.491653451528514 ], [ -70.328837449998815, -18.491038135381 ], [ -70.329007189998208, -18.490805096094476 ], [ -70.329206180634856, -18.490746034241539 ], [ -70.329215936737214, -18.49039216473594 ], [ -70.32929250263355, -18.490176499230067 ], [ -70.329295578764174, -18.489870247125673 ], [ -70.329094070008992, -18.489562586145041 ], [ -70.329023113532685, -18.489219791006462 ], [ -70.328914597909133, -18.488912769023329 ], [ -70.328711641578792, -18.488749226113502 ], [ -70.328395645919102, -18.48872903466118 ], [ -70.327945117099759, -18.489140305669356 ], [ -70.327554907891923, -18.489101587244839 ], [ -70.327075324593409, -18.488701929748331 ], [ -70.326456723705093, -18.487328433993152 ], [ -70.326385224432229, -18.487039679897084 ], [ -70.326630082649885, -18.486735086569929 ], [ -70.327264788074643, -18.4865052420426 ], [ -70.327060927050823, -18.486431772955427 ], [ -70.32708187800678, -18.486197703165306 ], [ -70.326897882251089, -18.485998255278115 ], [ -70.326917928460816, -18.48585426124589 ], [ -70.326642930055996, -18.485456004588354 ], [ -70.326590934125178, -18.485077298665963 ], [ -70.326499750523681, -18.484896504989504 ], [ -70.326575954476738, -18.484716863344506 ], [ -70.326448659331334, -18.484427720792532 ], [ -70.326489045773897, -18.484110454876539 ], [ -70.326605930185821, -18.483584270380472 ], [ -70.326875846017032, -18.483099675468988 ], [ -70.327259006980853, -18.482321263025721 ], [ -70.326660940383476, -18.482223902505609 ], [ -70.3266324466843, -18.482017468547809 ], [ -70.325356025752029, -18.481596315940958 ], [ -70.324510806787259, -18.481317431586191 ], [ -70.324280229559534, -18.482025853691734 ], [ -70.324028002017215, -18.482467683808608 ], [ -70.323549030351757, -18.483116710047373 ], [ -70.323080242288924, -18.483793968394163 ], [ -70.322744497135787, -18.484429198613771 ], [ -70.322539797487806, -18.484918442909994 ], [ -70.322378060705276, -18.485486451341256 ], [ -70.32223803007011, -18.486448334721199 ], [ -70.322283725207271, -18.487839320729929 ], [ -70.322429524486722, -18.488369374848833 ], [ -70.322662301026881, -18.489810121932159 ], [ -70.322099533907931, -18.490474249909933 ], [ -70.321255759496509, -18.491469985671575 ], [ -70.320748418801301, -18.492362702498934 ], [ -70.320688320825496, -18.493458185166766 ], [ -70.320607437628027, -18.493696225324239 ], [ -70.320165797982114, -18.494295314241374 ], [ -70.32076250621941, -18.494600948185298 ], [ -70.319488791755987, -18.497531346571307 ], [ -70.316690482628232, -18.498883587629649 ], [ -70.316812195847675, -18.499635669430752 ], [ -70.317870017784401, -18.500706882610729 ], [ -70.319014727744374, -18.501866060953425 ], [ -70.3201701089707, -18.504018257548069 ] ] ] } },
{ "type": "Feature", "properties": { "zona": "31" }, "geometry": { "type": "Polygon", "coordinates": [ [ [ -70.313024743536417, -18.482492766047571 ], [ -70.313823878825602, -18.48186172637611 ], [ -70.314514632827695, -18.482677393559946 ], [ -70.315386813013092, -18.481806862608735 ], [ -70.316430956716687, -18.480764677118593 ], [ -70.31593684183413, -18.480254459046826 ], [ -70.313810404506199, -18.477858136888656 ], [ -70.31332092771288, -18.477343624554241 ], [ -70.311875998152942, -18.478604655683824 ], [ -70.311409385354722, -18.47816072161784 ], [ -70.31073320523997, -18.477517399415255 ], [ -70.310180702442977, -18.47802346937252 ], [ -70.309490694911673, -18.478655692744692 ], [ -70.311131481684214, -18.480372847352459 ], [ -70.312129635278595, -18.481545975662353 ], [ -70.313024743536417, -18.482492766047571 ] ] ] } },
{ "type": "Feature", "properties": { "zona": "32" }, "geometry": { "type": "Polygon", "coordinates": [ [ [ -70.31516422149511, -18.484679032625337 ], [ -70.315947467748529, -18.484384443451077 ], [ -70.317174528472066, -18.484165342804602 ], [ -70.317416920120223, -18.484134447269209 ], [ -70.318260838907563, -18.484026877863425 ], [ -70.319487776899351, -18.483357722034679 ], [ -70.32027320843622, -18.48284272470573 ], [ -70.320515263382688, -18.48264428659877 ], [ -70.321085356141609, -18.481958010565851 ], [ -70.321427148716253, -18.481204468762968 ], [ -70.321758625945094, -18.480810299980021 ], [ -70.320773103402132, -18.480030404218713 ], [ -70.318209770457656, -18.482601462417854 ], [ -70.316430956716687, -18.480764677118593 ], [ -70.315386813013092, -18.481806862608735 ], [ -70.314514632827695, -18.482677393559946 ], [ -70.313695556451179, -18.48318322632219 ], [ -70.314056226235124, -18.483517101417483 ], [ -70.314741971895145, -18.484236231145726 ], [ -70.31516422149511, -18.484679032625337 ] ] ] } },
{ "type": "Feature", "properties": { "zona": "33" }, "geometry": { "type": "Polygon", "coordinates": [ [ [ -70.282651889344862, -18.504466669110521 ], [ -70.285279759043647, -18.505721537850956 ], [ -70.285679691050774, -18.505747088962163 ], [ -70.288512603203287, -18.505787221034595 ], [ -70.291457792244699, -18.505828898609394 ], [ -70.293695621250436, -18.505837515704947 ], [ -70.294049461335788, -18.505838875794002 ], [ -70.297966101017849, -18.505905797482043 ], [ -70.299637338736559, -18.505934328361633 ], [ -70.305092690553579, -18.506576445405237 ], [ -70.306032589276199, -18.506707919998782 ], [ -70.311312975867963, -18.501809955206699 ], [ -70.306073299005774, -18.497786444638567 ], [ -70.305679881951463, -18.497442460952023 ], [ -70.304748545023116, -18.49662813858464 ], [ -70.303831566755775, -18.494968791750082 ], [ -70.302627623277871, -18.493258507373682 ], [ -70.302645510315315, -18.492903393369925 ], [ -70.300568780173109, -18.490588767069934 ], [ -70.29996008092121, -18.49069215544289 ], [ -70.299216417557346, -18.491331724046159 ], [ -70.297138060721181, -18.492865447156408 ], [ -70.296916428664915, -18.493004106301306 ], [ -70.296334767684627, -18.49336685125304 ], [ -70.295153091321808, -18.493455314905937 ], [ -70.294021914471585, -18.493539991058213 ], [ -70.292842356142827, -18.493176606086546 ], [ -70.292255196268442, -18.492995717141529 ], [ -70.291333059101987, -18.492680906589857 ], [ -70.290553104520768, -18.492414631576864 ], [ -70.28898727787363, -18.492394866257627 ], [ -70.288848164134066, -18.493149664814609 ], [ -70.287424144573222, -18.495769583021698 ], [ -70.286101766380085, -18.498193206746656 ], [ -70.284985697768491, -18.500222786006141 ], [ -70.282651889344862, -18.504466669110521 ] ] ] } },
{ "type": "Feature", "properties": { "zona": "34" }, "geometry": { "type": "Polygon", "coordinates": [ [ [ -70.281577688563331, -18.46623824193852 ], [ -70.281509523074718, -18.465069277235362 ], [ -70.281471975641921, -18.46470637953793 ], [ -70.280968792459689, -18.464507289187264 ], [ -70.2788194283184, -18.462768751205953 ], [ -70.278824990418855, -18.464194240965917 ], [ -70.278905788153693, -18.464915075122555 ], [ -70.279128702932695, -18.466422535455802 ], [ -70.278723481001762, -18.466461862970139 ], [ -70.279040322743981, -18.468333918665994 ], [ -70.279466674814955, -18.470852936336822 ], [ -70.281015194600258, -18.470640018685565 ], [ -70.282100016231027, -18.470490850601674 ], [ -70.281697204662549, -18.467211323998427 ], [ -70.281674388760692, -18.467025561460964 ], [ -70.281577688563331, -18.46623824193852 ] ] ] } },
{ "type": "Feature", "properties": { "zona": "35" }, "geometry": { "type": "Polygon", "coordinates": [ [ [ -70.299216417557346, -18.491331724046159 ], [ -70.29996008092121, -18.49069215544289 ], [ -70.300568780173109, -18.490588767069934 ], [ -70.301774931876665, -18.490384112665783 ], [ -70.300843930461923, -18.488107629737005 ], [ -70.299968531345968, -18.485951126160057 ], [ -70.298094704514583, -18.486515334954689 ], [ -70.296619942020712, -18.486959370203518 ], [ -70.296024065282069, -18.487138778489616 ], [ -70.295912248687145, -18.48717244430599 ], [ -70.294796051770547, -18.487508505364925 ], [ -70.294065685521815, -18.487768351686956 ], [ -70.293696410362273, -18.487860612317409 ], [ -70.294326442649634, -18.488798633006201 ], [ -70.29467260027387, -18.489314002614968 ], [ -70.294997579320963, -18.489797837331981 ], [ -70.295446741531762, -18.490609525629157 ], [ -70.295876690227388, -18.491386484086604 ], [ -70.296236206893312, -18.491945840357985 ], [ -70.296916406285547, -18.49300412025795 ], [ -70.296916428664915, -18.493004106301306 ], [ -70.297138060721181, -18.492865447156408 ], [ -70.299216417557346, -18.491331724046159 ] ] ] } },
{ "type": "Feature", "properties": { "zona": "36" }, "geometry": { "type": "Polygon", "coordinates": [ [ [ -70.275394877332687, -18.483553897324757 ], [ -70.275457712903005, -18.483804162311632 ], [ -70.276068145047844, -18.486259703714744 ], [ -70.277046882262226, -18.486084505348753 ], [ -70.278194606999378, -18.485843218666943 ], [ -70.279322959722322, -18.485601594710644 ], [ -70.279335227313055, -18.48617939040502 ], [ -70.278700770433787, -18.48636759566935 ], [ -70.278009538120727, -18.486511322318119 ], [ -70.275766764718526, -18.486977639224563 ], [ -70.27634731175597, -18.488557191726777 ], [ -70.276609949497782, -18.489399290598527 ], [ -70.276659194979857, -18.489715584282564 ], [ -70.276762747662502, -18.490380677345655 ], [ -70.276776949916552, -18.490765905358902 ], [ -70.275269756612829, -18.491473277472576 ], [ -70.275369745630854, -18.492314243108378 ], [ -70.27565186253122, -18.493016412216637 ], [ -70.275630800093225, -18.493313863506234 ], [ -70.275806067731892, -18.493857743292661 ], [ -70.276711931521831, -18.493626125016142 ], [ -70.277679852509081, -18.493310367800238 ], [ -70.279249598887432, -18.492798269089821 ], [ -70.280810778605172, -18.492193711079164 ], [ -70.282169953082857, -18.491516999988654 ], [ -70.284441586281346, -18.490320031800678 ], [ -70.28557385030679, -18.489722488574479 ], [ -70.286212798556434, -18.489280103820867 ], [ -70.285993745787167, -18.489069755933485 ], [ -70.286071228562378, -18.488883987578831 ], [ -70.286166002660678, -18.488656761976163 ], [ -70.285883622220922, -18.488413187989551 ], [ -70.285702369955004, -18.48825684391106 ], [ -70.285193019435198, -18.487475977030918 ], [ -70.28489346944643, -18.486083031761524 ], [ -70.28463772572124, -18.484904526475511 ], [ -70.282532412666129, -18.484596925483622 ], [ -70.275394877332687, -18.483553897324757 ] ] ] } },
{ "type": "Feature", "properties": { "zona": "37" }, "geometry": { "type": "Polygon", "coordinates": [ [ [ -70.315521163376658, -18.499063401643131 ], [ -70.316690482628232, -18.498883587629649 ], [ -70.319488791755987, -18.497531346571307 ], [ -70.32076250621941, -18.494600948185298 ], [ -70.320165797982114, -18.494295314241374 ], [ -70.320607437628027, -18.493696225324239 ], [ -70.320688320825496, -18.493458185166766 ], [ -70.320748418801301, -18.492362702498934 ], [ -70.321255759496509, -18.491469985671575 ], [ -70.322099533907931, -18.490474249909933 ], [ -70.322662301026881, -18.489810121932159 ], [ -70.322429524486722, -18.488369374848833 ], [ -70.322283725207271, -18.487839320729929 ], [ -70.32223803007011, -18.486448334721199 ], [ -70.322378060705276, -18.485486451341256 ], [ -70.322539797487806, -18.484918442909994 ], [ -70.322744497135787, -18.484429198613771 ], [ -70.323080242288924, -18.483793968394163 ], [ -70.323549030351757, -18.483116710047373 ], [ -70.324028002017215, -18.482467683808608 ], [ -70.324280229559534, -18.482025853691734 ], [ -70.324510806787259, -18.481317431586191 ], [ -70.325356025752029, -18.481596315940958 ], [ -70.3266324466843, -18.482017468547809 ], [ -70.32650280888862, -18.481093900616159 ], [ -70.325714431602563, -18.4796906371589 ], [ -70.324884920210167, -18.479002873061464 ], [ -70.324236398465061, -18.478659141921558 ], [ -70.323362185465299, -18.478312793361543 ], [ -70.323212100699408, -18.478553492706101 ], [ -70.322959262194487, -18.47858827175051 ], [ -70.322360934918336, -18.479012749734238 ], [ -70.322512349565187, -18.479211941279303 ], [ -70.321915313082357, -18.479594309872596 ], [ -70.321590701197621, -18.480057800797574 ], [ -70.321127242778729, -18.479675189138614 ], [ -70.320773103402132, -18.480030404218713 ], [ -70.321758625945094, -18.480810299980021 ], [ -70.321427148716253, -18.481204468762968 ], [ -70.321085356141609, -18.481958010565851 ], [ -70.320515263382688, -18.48264428659877 ], [ -70.32027320843622, -18.48284272470573 ], [ -70.319487776899351, -18.483357722034679 ], [ -70.318260838907563, -18.484026877863425 ], [ -70.317416920120223, -18.484134447269209 ], [ -70.317174528472066, -18.484165342804602 ], [ -70.317628446231666, -18.484484836639947 ], [ -70.317232507403375, -18.485005662477207 ], [ -70.316228943848472, -18.486325753044746 ], [ -70.315963907373074, -18.486673018974127 ], [ -70.3158382561748, -18.487474992485446 ], [ -70.315369355398644, -18.488123976717379 ], [ -70.314495716075484, -18.488543994730101 ], [ -70.31423043412282, -18.488577010912284 ], [ -70.31387585205357, -18.488840859873697 ], [ -70.313838470641386, -18.489054956911644 ], [ -70.313642165285941, -18.490199355876378 ], [ -70.313442046631181, -18.490771571854271 ], [ -70.313060328851705, -18.491875221128097 ], [ -70.314397223596785, -18.492095398904922 ], [ -70.31572817626072, -18.493584950876286 ], [ -70.315894749378174, -18.495116440289554 ], [ -70.315619168954683, -18.4965790274453 ], [ -70.315521163376658, -18.499063401643131 ] ] ] } },
{ "type": "Feature", "properties": { "zona": "38" }, "geometry": { "type": "Polygon", "coordinates": [ [ [ -70.295094373843199, -18.45781107516525 ], [ -70.295744191992625, -18.458346363492801 ], [ -70.296141167287161, -18.458673369423728 ], [ -70.296535078185698, -18.45895170973813 ], [ -70.29688234660361, -18.458735648179072 ], [ -70.297078207322286, -18.458718346204506 ], [ -70.297320165353383, -18.458603219568555 ], [ -70.297399453279169, -18.458582340774665 ], [ -70.298014513831177, -18.458256194147356 ], [ -70.298493802644316, -18.458143058653388 ], [ -70.301042201023506, -18.457541490047557 ], [ -70.303861968297724, -18.45687581859374 ], [ -70.303635120327129, -18.456068824183046 ], [ -70.303502149153687, -18.45491228073216 ], [ -70.303465868019032, -18.453126044565039 ], [ -70.30352557341115, -18.450780131226999 ], [ -70.302678114538949, -18.451048280101791 ], [ -70.300174417583776, -18.45191917296194 ], [ -70.29974822816078, -18.448194030494101 ], [ -70.299413908174756, -18.445271732177638 ], [ -70.298639337245646, -18.44036107503193 ], [ -70.298105670428754, -18.440552765341511 ], [ -70.297579688473988, -18.441000832974549 ], [ -70.297288302313817, -18.441344281085946 ], [ -70.296927378312958, -18.441595664844218 ], [ -70.296513015080947, -18.441722020737451 ], [ -70.295068854648065, -18.441709681312616 ], [ -70.295087029841866, -18.444091414821706 ], [ -70.295136536463687, -18.450577101551016 ], [ -70.295130964812785, -18.454153178341997 ], [ -70.2950996239083, -18.45728621822369 ], [ -70.295094373843199, -18.45781107516525 ] ] ] } },
{ "type": "Feature", "properties": { "zona": "39" }, "geometry": { "type": "Polygon", "coordinates": [ [ [ -70.295082157718539, -18.459027352124167 ], [ -70.295086815976831, -18.458563532963076 ], [ -70.29508990780009, -18.458255685771476 ], [ -70.294542816067434, -18.45790927684509 ], [ -70.294077771077838, -18.457614816061724 ], [ -70.291961418376005, -18.455909139192631 ], [ -70.290632078157117, -18.454739471005869 ], [ -70.289939300770698, -18.454126524232976 ], [ -70.288430490949565, -18.455231141230055 ], [ -70.285260557809607, -18.457787547108268 ], [ -70.291199094162664, -18.464478225595236 ], [ -70.296037930242875, -18.460818729508169 ], [ -70.295273695210327, -18.459839577343107 ], [ -70.295082157718539, -18.459027352124167 ] ] ] } },
{ "type": "Feature", "properties": { "zona": "40" }, "geometry": { "type": "Polygon", "coordinates": [ [ [ -70.288430490949565, -18.455231141230055 ], [ -70.286548170280014, -18.453145619101626 ], [ -70.286225550321262, -18.452587851583001 ], [ -70.283036429958926, -18.452639301066029 ], [ -70.280495866749476, -18.452440934941926 ], [ -70.280440625977988, -18.453940887081885 ], [ -70.280331014892596, -18.455234099729235 ], [ -70.28025406962621, -18.45850530380811 ], [ -70.280192700231296, -18.459093333123114 ], [ -70.279035041670781, -18.458728080701768 ], [ -70.278862254561773, -18.459226283667537 ], [ -70.2788194283184, -18.462768751205953 ], [ -70.280968792459689, -18.464507289187264 ], [ -70.281471975641921, -18.46470637953793 ], [ -70.281374577997127, -18.463769482322054 ], [ -70.281291551985063, -18.463373909454553 ], [ -70.281896707817097, -18.462579852940742 ], [ -70.282502007552964, -18.46173103159791 ], [ -70.282832957258307, -18.461292929803001 ], [ -70.283210628065902, -18.460729463098549 ], [ -70.284186131403814, -18.45893774785209 ], [ -70.284303422620013, -18.45854774056464 ], [ -70.284386560153493, -18.45702948296638 ], [ -70.284533706294241, -18.456971753561319 ], [ -70.285260557809607, -18.457787547108268 ], [ -70.288430490949565, -18.455231141230055 ] ] ] } },
{ "type": "Feature", "properties": { "zona": "41" }, "geometry": { "type": "Polygon", "coordinates": [ [ [ -70.288144381171961, -18.48371229160438 ], [ -70.285791301729802, -18.481622318395289 ], [ -70.283888897295554, -18.479932567472225 ], [ -70.283537419060053, -18.479985656727528 ], [ -70.283537590404222, -18.479987613945081 ], [ -70.283795979596775, -18.481232214971829 ], [ -70.284157869793916, -18.482975320279373 ], [ -70.284351441583013, -18.483584832502 ], [ -70.28463772572124, -18.484904526475511 ], [ -70.28489346944643, -18.486083031761524 ], [ -70.286513812487527, -18.484901404890056 ], [ -70.288144381171961, -18.48371229160438 ] ] ] } },
{ "type": "Feature", "properties": { "zona": "42" }, "geometry": { "type": "Polygon", "coordinates": [ [ [ -70.313669649610944, -18.518995697635706 ], [ -70.31438880061809, -18.520832055083414 ], [ -70.315436235840039, -18.521234420554112 ], [ -70.317095436052455, -18.522446501618596 ], [ -70.317548365807696, -18.523445097228816 ], [ -70.317727132717351, -18.524396205907092 ], [ -70.31855666718279, -18.526180073706659 ], [ -70.318838516055663, -18.52735025973389 ], [ -70.319016050400762, -18.528098154398464 ], [ -70.319450137069808, -18.528951334342587 ], [ -70.319759580946823, -18.529850996975991 ], [ -70.319836880202246, -18.530748180788304 ], [ -70.319786882065898, -18.531819253277845 ], [ -70.320122498962078, -18.532778994040925 ], [ -70.321076467464479, -18.534567193220305 ], [ -70.321945883164958, -18.536393260262187 ], [ -70.322440411980338, -18.537156510259059 ], [ -70.323014167669484, -18.537844318230146 ], [ -70.323025966015095, -18.538231917920314 ], [ -70.323169548338868, -18.538779989748779 ], [ -70.323929038346719, -18.538944783780327 ], [ -70.324699715898376, -18.539557957063241 ], [ -70.325559681079085, -18.539875408670859 ], [ -70.327594527076513, -18.540143983672241 ], [ -70.328567478257369, -18.540412800507152 ], [ -70.329468278781604, -18.540570968004712 ], [ -70.33000410142354, -18.541129331327593 ], [ -70.328697259736089, -18.543558042387406 ], [ -70.328371533212675, -18.544294137920186 ], [ -70.328146901625317, -18.545438947061303 ], [ -70.328013352901777, -18.54714094552866 ], [ -70.331112959350918, -18.5471318933308 ], [ -70.330975233101583, -18.546695153855055 ], [ -70.331093294927825, -18.546473161129576 ], [ -70.331262723492912, -18.545675653555506 ], [ -70.331436805637722, -18.545185474704557 ], [ -70.331760042396425, -18.544485297696706 ], [ -70.332703371106831, -18.543159020855626 ], [ -70.332913024572761, -18.54265616965856 ], [ -70.332931830426205, -18.542047085340847 ], [ -70.333073998538055, -18.541546556601652 ], [ -70.333280698000777, -18.541235861737473 ], [ -70.33319241012606, -18.540766975064436 ], [ -70.333273863395334, -18.540065115232537 ], [ -70.333128512497552, -18.539721908541495 ], [ -70.332999769464109, -18.539576935234898 ], [ -70.332966191769557, -18.539216486209995 ], [ -70.332875913040979, -18.538945700771745 ], [ -70.332768302508029, -18.538548718759017 ], [ -70.332397414407424, -18.538438099339952 ], [ -70.332195362503128, -18.538184554173011 ], [ -70.331955751234716, -18.537966772139857 ], [ -70.33154730379286, -18.537891915903799 ], [ -70.33145286240493, -18.538035354034388 ], [ -70.331286560031415, -18.537926142853095 ], [ -70.330893815503217, -18.538139571338416 ], [ -70.330747016773003, -18.537940439316728 ], [ -70.330394161432451, -18.537911506267537 ], [ -70.330025363526346, -18.53783366012086 ], [ -70.329837490426058, -18.537754067053029 ], [ -70.329521131569408, -18.537769900122875 ], [ -70.329374332867516, -18.537570767706523 ], [ -70.329094266465788, -18.537676906034946 ], [ -70.328797411264304, -18.537602818044231 ], [ -70.328613415183227, -18.537403429367838 ], [ -70.32840810555436, -18.537474060298678 ], [ -70.328148266769276, -18.537418238176912 ], [ -70.327833717845579, -18.537253972756012 ], [ -70.327332277012729, -18.537178476185435 ], [ -70.327052210618916, -18.53728461480009 ], [ -70.326530904152449, -18.537335059284796 ], [ -70.326103134148767, -18.537332114402965 ], [ -70.325939365764683, -18.536970764548922 ], [ -70.325772882478731, -18.536879562714958 ], [ -70.325722335211708, -18.536356890589893 ], [ -70.326037427053507, -18.536467126945418 ], [ -70.326224861939963, -18.536324327681072 ], [ -70.326264955209112, -18.536036424108435 ], [ -70.32591230399953, -18.535961951406083 ], [ -70.32589551523408, -18.535781723267377 ], [ -70.325617077815437, -18.535725772644923 ], [ -70.32554123509712, -18.535869340639078 ], [ -70.325280853392769, -18.535867548128181 ], [ -70.324785566459596, -18.535179709416756 ], [ -70.324788643352591, -18.534873537751551 ], [ -70.324529750221373, -18.53415110794673 ], [ -70.324500294965802, -18.533952970915525 ], [ -70.324148005822479, -18.533842476968154 ], [ -70.324093657703145, -18.533698011031102 ], [ -70.324207783745223, -18.533446635730478 ], [ -70.323780918870995, -18.533353639617602 ], [ -70.323728665197237, -18.533000759570996 ], [ -70.323793482337393, -18.532793410705608 ], [ -70.324065148001068, -18.532833261406232 ], [ -70.324068043885234, -18.532545095917321 ], [ -70.323549995537491, -18.532271355408529 ], [ -70.323474152843573, -18.532414926309766 ], [ -70.323344505015186, -18.532359998960992 ], [ -70.323236532764739, -18.531999022850535 ], [ -70.323239247663651, -18.531728866415172 ], [ -70.323020226279269, -18.531313089340685 ], [ -70.32320711809534, -18.53122431719887 ], [ -70.323395095863347, -18.531027481943546 ], [ -70.323323416008378, -18.530756811846278 ], [ -70.3230641203819, -18.530646956097701 ], [ -70.322875961626536, -18.530861802330975 ], [ -70.322798128018491, -18.531203490011563 ], [ -70.32261087421449, -18.531328283142201 ], [ -70.322670109145719, -18.530986467682528 ], [ -70.322861344783476, -18.530465442092794 ], [ -70.322974384825585, -18.530322125612457 ], [ -70.322922208619758, -18.529961529323213 ], [ -70.322776677014602, -18.529636313453366 ], [ -70.322705359148671, -18.529329619790463 ], [ -70.322690199309903, -18.528987288213841 ], [ -70.322532946695631, -18.527977532042698 ], [ -70.321979330100746, -18.527541430535116 ], [ -70.322073952416559, -18.52737997266188 ], [ -70.322076305299888, -18.527145830810657 ], [ -70.321892128427166, -18.526964441190714 ], [ -70.321707227594402, -18.526855095217019 ], [ -70.321838866267072, -18.526711903720553 ], [ -70.322062774361868, -18.526641396169389 ], [ -70.322176357321013, -18.526444043480328 ], [ -70.322012589029839, -18.526082670888652 ], [ -70.321983717207189, -18.525253905189697 ], [ -70.321783294536587, -18.524838240559802 ], [ -70.321451052247781, -18.52458377955482 ], [ -70.3212643415456, -18.524654544040651 ], [ -70.321082517574695, -18.524239006018696 ], [ -70.320954136759767, -18.524057997455007 ], [ -70.320975269290102, -18.523805967831567 ], [ -70.321033056193372, -18.523608227781942 ], [ -70.320998573688527, -18.523337802095178 ], [ -70.320721403502304, -18.523155768382566 ], [ -70.320779552378681, -18.5229220048526 ], [ -70.320839511138956, -18.522508126995213 ], [ -70.320619765878973, -18.522164373556134 ], [ -70.32062510518621, -18.521863540868324 ], [ -70.320662211886358, -18.52164229687234 ], [ -70.320497538687491, -18.521370971920405 ], [ -70.320162581658224, -18.52138667900924 ], [ -70.320164934511212, -18.521152528992825 ], [ -70.320036734707514, -18.520953505638467 ], [ -70.319871337570973, -18.520754226010073 ], [ -70.319539276388312, -18.520481747475912 ], [ -70.317447973249884, -18.51977584137807 ], [ -70.313669649610944, -18.518995697635706 ] ] ] } },
{ "type": "Feature", "properties": { "zona": "43" }, "geometry": { "type": "Polygon", "coordinates": [ [ [ -70.295685371980866, -18.419355541530503 ], [ -70.297634780722433, -18.404225618501872 ], [ -70.29781590861306, -18.40281973222098 ], [ -70.29789294124528, -18.402221811833247 ], [ -70.298029887455669, -18.401158865644575 ], [ -70.298135216066257, -18.400341321628762 ], [ -70.298250149152594, -18.399449222602634 ], [ -70.298636663273186, -18.396449088540777 ], [ -70.285795125420933, -18.399606379724613 ], [ -70.28621978909996, -18.40197564265176 ], [ -70.287360209874393, -18.401973348391184 ], [ -70.288303589647043, -18.401797332203426 ], [ -70.289277540148518, -18.401702639983903 ], [ -70.290208524579867, -18.40171918367038 ], [ -70.291069432486324, -18.401420929240778 ], [ -70.291949635303425, -18.401285035097921 ], [ -70.293587757866888, -18.40068794864699 ], [ -70.294469385427846, -18.400410113727119 ], [ -70.294957235979979, -18.399754414219856 ], [ -70.295899597961906, -18.399679782661369 ], [ -70.297144533465243, -18.399688347563043 ], [ -70.297956043014352, -18.400329138954639 ], [ -70.2978584333855, -18.401103082036403 ], [ -70.29719405316574, -18.402051139150394 ], [ -70.295034624585654, -18.407770733911942 ], [ -70.294667176165277, -18.408847165712896 ], [ -70.294324363245877, -18.409645770911162 ], [ -70.292441357055978, -18.414854020195882 ], [ -70.291894485675186, -18.41615828995932 ], [ -70.290661189286041, -18.419660554514767 ], [ -70.290313189350314, -18.420437339484785 ], [ -70.289695275788063, -18.422168666132382 ], [ -70.289277963328516, -18.423220063978313 ], [ -70.295141767122558, -18.423263142646523 ], [ -70.295685371980866, -18.419355541530503 ] ] ] } },
{ "type": "Feature", "properties": { "zona": "44" }, "geometry": { "type": "Polygon", "coordinates": [ [ [ -70.299722017682839, -18.3904437091531 ], [ -70.299583637792367, -18.388085049259747 ], [ -70.297569215343771, -18.388663208947868 ], [ -70.296749535137437, -18.388932617407363 ], [ -70.290622523015031, -18.390715568955862 ], [ -70.289604196415439, -18.391048236836262 ], [ -70.288541140393221, -18.391326232454649 ], [ -70.287493186441239, -18.391657631245867 ], [ -70.286510733181913, -18.391914826665271 ], [ -70.284462831939592, -18.39252370058454 ], [ -70.285795125420933, -18.399606379724613 ], [ -70.298636663273186, -18.396449088540777 ], [ -70.299722017682839, -18.3904437091531 ] ] ] } },
{ "type": "Feature", "properties": { "zona": "45" }, "geometry": { "type": "Polygon", "coordinates": [ [ [ -70.298636663273186, -18.396449088540777 ], [ -70.298250149152594, -18.399449222602634 ], [ -70.298135216066257, -18.400341321628762 ], [ -70.298029887455669, -18.401158865644575 ], [ -70.29789294124528, -18.402221811833247 ], [ -70.29781590861306, -18.40281973222098 ], [ -70.297634780722433, -18.404225618501872 ], [ -70.295685371980866, -18.419355541530503 ], [ -70.30387082491653, -18.404006959797144 ], [ -70.304844252705919, -18.402304651980753 ], [ -70.314233337293274, -18.385883384481907 ], [ -70.313228191538826, -18.385836568037853 ], [ -70.312375526553495, -18.38531355162424 ], [ -70.311007411058853, -18.384026468359448 ], [ -70.309826569203409, -18.383886519682303 ], [ -70.308173254781167, -18.383312969248419 ], [ -70.307525842646015, -18.382745114716805 ], [ -70.306906488312165, -18.381909343048726 ], [ -70.306217056899683, -18.380758731296002 ], [ -70.305524674794711, -18.37990216674158 ], [ -70.304440531967785, -18.379509367765344 ], [ -70.303500894277093, -18.378982066319647 ], [ -70.302739228842128, -18.378463606786561 ], [ -70.30192713356594, -18.377666769953052 ], [ -70.301423468140612, -18.376770926228257 ], [ -70.300586436383099, -18.376775308250291 ], [ -70.30005074344345, -18.383241262278879 ], [ -70.299925693317178, -18.384234149562538 ], [ -70.299761553008167, -18.386595037325485 ], [ -70.299583637792367, -18.388085049259747 ], [ -70.299722017682839, -18.3904437091531 ], [ -70.298636663273186, -18.396449088540777 ] ] ] } },
{ "type": "Feature", "properties": { "zona": "46" }, "geometry": { "type": "Polygon", "coordinates": [ [ [ -70.295685371980866, -18.419355541530503 ], [ -70.295141767122558, -18.423263142646523 ], [ -70.295141767083734, -18.423263148111165 ], [ -70.304921783700294, -18.422366960605075 ], [ -70.306397099894511, -18.420375123643375 ], [ -70.307075989050531, -18.419516710480309 ], [ -70.308600918593484, -18.417398591901005 ], [ -70.308923214962419, -18.416559327944395 ], [ -70.309651175404795, -18.41595603453764 ], [ -70.31315090153123, -18.411193465289866 ], [ -70.314402475747457, -18.409475260800995 ], [ -70.316620239624697, -18.406463497861832 ], [ -70.317265726783205, -18.405737933480804 ], [ -70.319175281968114, -18.40381928736949 ], [ -70.321515674302233, -18.401346520454148 ], [ -70.322232007256318, -18.400672762939081 ], [ -70.324276484187592, -18.398552125299151 ], [ -70.324938565870269, -18.397905116470906 ], [ -70.327329610506666, -18.395404266006921 ], [ -70.327241051402609, -18.394845976969929 ], [ -70.326676020723113, -18.394852227878427 ], [ -70.326158839359991, -18.394260568150624 ], [ -70.325302205270631, -18.394132996417774 ], [ -70.323929120185653, -18.393302708503718 ], [ -70.323297860357016, -18.392648941732176 ], [ -70.323012971977732, -18.391845937350645 ], [ -70.322284624911617, -18.391445471554508 ], [ -70.321631137283077, -18.390883282168137 ], [ -70.321229644796858, -18.390231566018102 ], [ -70.32100732289112, -18.38944926105637 ], [ -70.320407771482763, -18.388725196599495 ], [ -70.319847930081465, -18.38821434321013 ], [ -70.318263662064751, -18.387615318236808 ], [ -70.31753019260637, -18.387402705449762 ], [ -70.316700114031278, -18.387036714279102 ], [ -70.316013614022594, -18.386636526008992 ], [ -70.315832833717209, -18.385884911478726 ], [ -70.31501641908865, -18.385919854192529 ], [ -70.314233337293274, -18.385883384481907 ], [ -70.304844252705919, -18.402304651980753 ], [ -70.30387082491653, -18.404006959797144 ], [ -70.295685371980866, -18.419355541530503 ] ] ] } },
{ "type": "Feature", "properties": { "zona": "47" }, "geometry": { "type": "Polygon", "coordinates": [ [ [ -70.352741955141468, -18.365025426948112 ], [ -70.341841098934253, -18.341385415808809 ], [ -70.337122858609234, -18.332073119614417 ], [ -70.321156330939317, -18.338845818412114 ], [ -70.3264154932873, -18.350072529716329 ], [ -70.29745803979587, -18.361304038193492 ], [ -70.301534636358738, -18.375549312785687 ], [ -70.301537641734924, -18.375548319828447 ], [ -70.304081774656737, -18.374450826092968 ], [ -70.333560777451268, -18.361397371737155 ], [ -70.339239750963884, -18.372478992024774 ], [ -70.352741955141468, -18.365025426948112 ] ] ] } },
{ "type": "Feature", "properties": { "zona": "48" }, "geometry": { "type": "Polygon", "coordinates": [ [ [ -70.313695556451179, -18.48318322632219 ], [ -70.314514632827695, -18.482677393559946 ], [ -70.313823878825602, -18.48186172637611 ], [ -70.313024743536417, -18.482492766047571 ], [ -70.310405122625312, -18.483624403130598 ], [ -70.308242054608698, -18.484056306771855 ], [ -70.307135490772865, -18.484277246078648 ], [ -70.307291529111765, -18.484677316887751 ], [ -70.307402434842444, -18.484961669683475 ], [ -70.307705502802335, -18.485785916411054 ], [ -70.308096125192222, -18.485505789404282 ], [ -70.3084801698338, -18.485383467032054 ], [ -70.309240816504058, -18.485127077945002 ], [ -70.311358189638028, -18.484171083648143 ], [ -70.311711654125361, -18.484021699054928 ], [ -70.313556682260383, -18.48324192076911 ], [ -70.313695556451179, -18.48318322632219 ] ] ] } },
{ "type": "Feature", "properties": { "zona": "49" }, "geometry": { "type": "Polygon", "coordinates": [ [ [ -70.278862254561773, -18.459226283667537 ], [ -70.279035041670781, -18.458728080701768 ], [ -70.276312119528797, -18.457173760124551 ], [ -70.275766985736993, -18.457542506016942 ], [ -70.275164179127984, -18.458184523659117 ], [ -70.274978178642286, -18.458822887228262 ], [ -70.270970281170719, -18.471830980970381 ], [ -70.276965215379263, -18.471834212647288 ], [ -70.278829367944425, -18.47187744225781 ], [ -70.27955328053568, -18.471868029132619 ], [ -70.279466674814955, -18.470852936336822 ], [ -70.279040322743981, -18.468333918665994 ], [ -70.278723481001762, -18.466461862970139 ], [ -70.279128702932695, -18.466422535455802 ], [ -70.278905788153693, -18.464915075122555 ], [ -70.278824990418855, -18.464194240965917 ], [ -70.2788194283184, -18.462768751205953 ], [ -70.278862254561773, -18.459226283667537 ] ] ] } },
{ "type": "Feature", "properties": { "zona": "50" }, "geometry": { "type": "Polygon", "coordinates": [ [ [ -70.280163423637902, -18.500475504668547 ], [ -70.279069313087575, -18.501730397007826 ], [ -70.27810003508462, -18.502905556320631 ], [ -70.27730993563965, -18.503863463446951 ], [ -70.276310033043458, -18.505046891076688 ], [ -70.275981515112676, -18.505418351949746 ], [ -70.27510449906697, -18.506057220525818 ], [ -70.273670927026899, -18.506422179559742 ], [ -70.273477457312026, -18.506680885687295 ], [ -70.273227618786848, -18.50683926795093 ], [ -70.272352751828478, -18.507393875049949 ], [ -70.27150062002913, -18.507416578935292 ], [ -70.27077241312648, -18.507549321337446 ], [ -70.270584493127117, -18.507583576162965 ], [ -70.269684568565268, -18.507819415731124 ], [ -70.268596503676619, -18.507875482165272 ], [ -70.267994983405245, -18.507906474954435 ], [ -70.267314496643337, -18.507989606848344 ], [ -70.266634580723661, -18.508072666498681 ], [ -70.265759096913186, -18.508487512147273 ], [ -70.264394961338525, -18.508882029370469 ], [ -70.262001141731972, -18.508653831914206 ], [ -70.260551915706188, -18.508716576219079 ], [ -70.2588057305245, -18.509034714580945 ], [ -70.258464642624389, -18.509048323219876 ], [ -70.257984051075539, -18.509067496695081 ], [ -70.257065491396745, -18.509476504101915 ], [ -70.254891685678913, -18.509969298107801 ], [ -70.254156279479403, -18.510136005858261 ], [ -70.255660811915888, -18.511651481967618 ], [ -70.256582543712966, -18.511105734912494 ], [ -70.257908655311724, -18.510927886898536 ], [ -70.258977744035036, -18.510767480829845 ], [ -70.261470251675078, -18.510833737099972 ], [ -70.263261797089584, -18.510986953443918 ], [ -70.264253095903413, -18.511015841768788 ], [ -70.264520101977624, -18.512166862447234 ], [ -70.265185963921994, -18.515012169090156 ], [ -70.264624310068541, -18.515459971453101 ], [ -70.264075297003032, -18.516223625941073 ], [ -70.263778426074552, -18.517343373461589 ], [ -70.263608995633845, -18.518342304699679 ], [ -70.264036869392754, -18.51881485384655 ], [ -70.264249945164025, -18.51905302216468 ], [ -70.264473522430663, -18.518946017256475 ], [ -70.264857932459108, -18.519323973562109 ], [ -70.264814576364984, -18.519989644476958 ], [ -70.26385091840055, -18.520808419214262 ], [ -70.264605379065443, -18.521705483349848 ], [ -70.275002693618816, -18.51240468018797 ], [ -70.280388037732209, -18.517412068147845 ], [ -70.297779107021924, -18.518283252458733 ], [ -70.297966101017849, -18.505905797482043 ], [ -70.294049461335788, -18.505838875794002 ], [ -70.293695621250436, -18.505837515704947 ], [ -70.291457792244699, -18.505828898609394 ], [ -70.288512603203287, -18.505787221034595 ], [ -70.285679691050774, -18.505747088962163 ], [ -70.285279759043647, -18.505721537850956 ], [ -70.282651889344862, -18.504466669110521 ], [ -70.281310422184376, -18.503835184750539 ], [ -70.280788453785874, -18.503023833803429 ], [ -70.281332406010904, -18.501650537563016 ], [ -70.280782651733333, -18.501203299873627 ], [ -70.280523458005106, -18.500618020908323 ], [ -70.280163423637902, -18.500475504668547 ] ] ] } },
{ "type": "Feature", "properties": { "zona": "51" }, "geometry": { "type": "Polygon", "coordinates": [ [ [ -70.276310033043458, -18.505046891076688 ], [ -70.275327721695291, -18.504479990095447 ], [ -70.274848848666053, -18.504173284075296 ], [ -70.274647933221004, -18.502584816785475 ], [ -70.275063031721103, -18.502429225528854 ], [ -70.275542847376173, -18.502249374902977 ], [ -70.275562303035031, -18.502101567639297 ], [ -70.275579843440781, -18.501968310646433 ], [ -70.275870931738865, -18.50177776069614 ], [ -70.276289052315136, -18.50153557004235 ], [ -70.276456802414003, -18.50102908398204 ], [ -70.276616683103938, -18.499507254587954 ], [ -70.276495983532854, -18.498928757872093 ], [ -70.27628246087599, -18.498594692288052 ], [ -70.275886810216861, -18.498399414187695 ], [ -70.275179536582641, -18.498639620165616 ], [ -70.274275229218091, -18.498703419556673 ], [ -70.273570418326202, -18.498698571007978 ], [ -70.273373560543732, -18.498504660672292 ], [ -70.272886318209359, -18.498431288401264 ], [ -70.272708587990621, -18.498132478506559 ], [ -70.272203977261583, -18.497988966001778 ], [ -70.271917990545077, -18.497671905468209 ], [ -70.271345360438218, -18.495304748796002 ], [ -70.27415585419233, -18.494396291749094 ], [ -70.275806067731892, -18.493857743292661 ], [ -70.275630800093225, -18.493313863506234 ], [ -70.27565186253122, -18.493016412216637 ], [ -70.275369745630854, -18.492314243108378 ], [ -70.275269756612829, -18.491473277472576 ], [ -70.276776949916552, -18.490765905358902 ], [ -70.276762747662502, -18.490380677345655 ], [ -70.276659194979857, -18.489715584282564 ], [ -70.276609949497782, -18.489399290598527 ], [ -70.27634731175597, -18.488557191726777 ], [ -70.275766764718526, -18.486977639224563 ], [ -70.278009538120727, -18.486511322318119 ], [ -70.278700770433787, -18.48636759566935 ], [ -70.279335227313055, -18.48617939040502 ], [ -70.279322959722322, -18.485601594710644 ], [ -70.278194606999378, -18.485843218666943 ], [ -70.277046882262226, -18.486084505348753 ], [ -70.276068145047844, -18.486259703714744 ], [ -70.275457712903005, -18.483804162311632 ], [ -70.275394877332687, -18.483553897324757 ], [ -70.274829723150248, -18.483453743545983 ], [ -70.273737973350777, -18.483289528579267 ], [ -70.266218826898083, -18.482128956209628 ], [ -70.267361941721035, -18.486022300797536 ], [ -70.26542193891332, -18.48656268262658 ], [ -70.264490834776396, -18.487039877933316 ], [ -70.263834570086502, -18.487566923858576 ], [ -70.262696962366491, -18.488347951784359 ], [ -70.261823097010321, -18.489174249508146 ], [ -70.261071189062932, -18.489561076856386 ], [ -70.259907818836993, -18.489829586376672 ], [ -70.25870376589063, -18.49024758495705 ], [ -70.257986895239199, -18.49083203399675 ], [ -70.257451847876425, -18.491422406413111 ], [ -70.256271175475604, -18.491731482590378 ], [ -70.254925366541599, -18.492341381375127 ], [ -70.254012205245857, -18.49314332313827 ], [ -70.25321184880282, -18.493450856597708 ], [ -70.252168039243372, -18.49355414141835 ], [ -70.251403678737475, -18.49357052723947 ], [ -70.25061383560778, -18.493654608754614 ], [ -70.249634525226497, -18.494385968173116 ], [ -70.248958207094248, -18.494798062785765 ], [ -70.248114092243355, -18.495346474331139 ], [ -70.24723463284694, -18.496085438727334 ], [ -70.245458404838075, -18.497211253059824 ], [ -70.246446010477101, -18.50066099992225 ], [ -70.246955954553968, -18.502925607498344 ], [ -70.247104590210711, -18.503729953838658 ], [ -70.246975831341828, -18.50466708308775 ], [ -70.24756753165039, -18.505878721765175 ], [ -70.248265383276333, -18.506006441529919 ], [ -70.248668860248912, -18.506275486212871 ], [ -70.248878794077413, -18.5073468530417 ], [ -70.248620764514186, -18.507662937884032 ], [ -70.248155331789064, -18.507871642943982 ], [ -70.248155396239994, -18.509009421291342 ], [ -70.248492567275903, -18.510546481791057 ], [ -70.249626731497372, -18.510537488789868 ], [ -70.250844102389507, -18.51022523704604 ], [ -70.254156279479403, -18.510136005858261 ], [ -70.254891685678913, -18.509969298107801 ], [ -70.257065491396745, -18.509476504101915 ], [ -70.257984051075539, -18.509067496695081 ], [ -70.258464642624389, -18.509048323219876 ], [ -70.2588057305245, -18.509034714580945 ], [ -70.260551915706188, -18.508716576219079 ], [ -70.262001141731972, -18.508653831914206 ], [ -70.264394961338525, -18.508882029370469 ], [ -70.265759096913186, -18.508487512147273 ], [ -70.266634580723661, -18.508072666498681 ], [ -70.267314496643337, -18.507989606848344 ], [ -70.267994983405245, -18.507906474954435 ], [ -70.268596503676619, -18.507875482165272 ], [ -70.269684568565268, -18.507819415731124 ], [ -70.270584493127117, -18.507583576162965 ], [ -70.27077241312648, -18.507549321337446 ], [ -70.27150062002913, -18.507416578935292 ], [ -70.272352751828478, -18.507393875049949 ], [ -70.273227618786848, -18.50683926795093 ], [ -70.273477457312026, -18.506680885687295 ], [ -70.273670927026899, -18.506422179559742 ], [ -70.27510449906697, -18.506057220525818 ], [ -70.275981515112676, -18.505418351949746 ], [ -70.276310033043458, -18.505046891076688 ] ] ] } }
]
}
