{
"type": "FeatureCollection",
"name": "Copiapó",
"crs": { "type": "name", "properties": { "name": "urn:ogc:def:crs:OGC:1.3:CRS84" } },
"features": [
{ "type": "Feature", "properties": { "zona": "3" }, "geometry": { "type": "Polygon", "coordinates": [ [ [ -70.35279451494759, -27.353769220288278 ], [ -70.35279247166126, -27.353854885804459 ], [ -70.352792807254119, -27.353855063049753 ], [ -70.353346102500055, -27.354125500238641 ], [ -70.353647401337184, -27.354169598886756 ], [ -70.353648403733274, -27.354169769665305 ], [ -70.353671936215818, -27.353719382665243 ], [ -70.353682091564337, -27.353526242944909 ], [ -70.353960146807069, -27.353002723574487 ], [ -70.354315803540544, -27.352636566164325 ], [ -70.354872615154974, -27.352244089117715 ], [ -70.355651369230088, -27.351650096718416 ], [ -70.35691576924178, -27.350810960108245 ], [ -70.357750134940559, -27.350103515374396 ], [ -70.359286593983114, -27.349641387054071 ], [ -70.359292636417649, -27.349637898799955 ], [ -70.361632359618312, -27.35252028432237 ], [ -70.361847038319453, -27.352795342896489 ], [ -70.361853221028085, -27.352803314684127 ], [ -70.363794059393754, -27.351237968992514 ], [ -70.365804654022867, -27.350083717493948 ], [ -70.371660843713528, -27.346806535477466 ], [ -70.372804922763862, -27.345944705584774 ], [ -70.372830606691593, -27.345925320517864 ], [ -70.372697653415813, -27.340528438407475 ], [ -70.372497212456864, -27.335313974841981 ], [ -70.372497194670061, -27.335312531045815 ], [ -70.363650501609598, -27.340795031755942 ], [ -70.358355716879927, -27.333974205809774 ], [ -70.357538372846889, -27.335295808578117 ], [ -70.356910085117704, -27.33604628284747 ], [ -70.357016088650937, -27.336702081732774 ], [ -70.356823729211584, -27.337010434283073 ], [ -70.355554415505239, -27.337460734241571 ], [ -70.354773685802726, -27.337774792794487 ], [ -70.353937031452148, -27.337520191531524 ], [ -70.35310516616633, -27.337659564050366 ], [ -70.352483747335143, -27.338979331052027 ], [ -70.352238116625998, -27.338937938715127 ], [ -70.351439836937345, -27.337807088361437 ], [ -70.350458137827232, -27.337729041909078 ], [ -70.349630146250448, -27.338174931077905 ], [ -70.349099795861846, -27.338924515649452 ], [ -70.348012828890162, -27.338234319433546 ], [ -70.347425518500401, -27.338327527442789 ], [ -70.346891975989408, -27.338814420864257 ], [ -70.346156677028134, -27.33882150934712 ], [ -70.345815965652022, -27.339043735978535 ], [ -70.345631059260953, -27.339965061646808 ], [ -70.345925651141528, -27.340712911879528 ], [ -70.345248909505358, -27.340800745703998 ], [ -70.344714286793234, -27.341199919859594 ], [ -70.344625097807324, -27.341945240162907 ], [ -70.345596228919561, -27.343174008945372 ], [ -70.34562119863817, -27.343205535900776 ], [ -70.347229809817193, -27.345514020197932 ], [ -70.348739171493222, -27.347805302114551 ], [ -70.349400301473452, -27.348427586434621 ], [ -70.350031471632249, -27.349355738454019 ], [ -70.350860870766695, -27.34991935131367 ], [ -70.351124027232004, -27.350269586559705 ], [ -70.352316889436636, -27.352316515792875 ], [ -70.352317656017618, -27.352317862094779 ], [ -70.352311364899478, -27.352746963979794 ], [ -70.352311222274338, -27.352755809705346 ], [ -70.352518363977708, -27.352631877777981 ], [ -70.352737466494617, -27.352669103573504 ], [ -70.352801056189932, -27.353429461973768 ], [ -70.35279451494759, -27.353769220288278 ] ] ] } },
{ "type": "Feature", "properties": { "zona": "2" }, "geometry": { "type": "Polygon", "coordinates": [ [ [ -70.344410305794611, -27.353550936776699 ], [ -70.344837270885819, -27.355337807531324 ], [ -70.344863412119224, -27.355983554751113 ], [ -70.34495605900301, -27.356489859023075 ], [ -70.344981251359982, -27.357484696483233 ], [ -70.345287124417723, -27.357844638701007 ], [ -70.345686967179603, -27.358343920594567 ], [ -70.348256187451241, -27.356304065252573 ], [ -70.351726429382069, -27.353549701908939 ], [ -70.352311364899478, -27.352746963979794 ], [ -70.352317656017618, -27.352317862094779 ], [ -70.352316889436636, -27.352316515792875 ], [ -70.351124027232004, -27.350269586559705 ], [ -70.350860870766695, -27.34991935131367 ], [ -70.350031471632249, -27.349355738454019 ], [ -70.349400301473452, -27.348427586434621 ], [ -70.348739171493222, -27.347805302114551 ], [ -70.347229809817193, -27.345514020197932 ], [ -70.34562119863817, -27.343205535900776 ], [ -70.345596228919561, -27.343174008945372 ], [ -70.345513428469673, -27.343468024611209 ], [ -70.345165205470167, -27.343690683289172 ], [ -70.344005792430252, -27.343560877118612 ], [ -70.343478622839356, -27.343487613382884 ], [ -70.343054365284132, -27.343225369925502 ], [ -70.342527114412746, -27.343152103315269 ], [ -70.342119207581774, -27.342780047503112 ], [ -70.342021496134663, -27.343407583515095 ], [ -70.341767632579561, -27.344177768778358 ], [ -70.341792578532406, -27.344788513065421 ], [ -70.341922326585532, -27.345366843743676 ], [ -70.34194417082729, -27.345726996989939 ], [ -70.341684638768768, -27.346027130909292 ], [ -70.341304565932404, -27.347973475771564 ], [ -70.342899899746428, -27.349175417375097 ], [ -70.343998571145093, -27.349482071324822 ], [ -70.344577357749017, -27.349644271648827 ], [ -70.34469601398041, -27.349792490522308 ], [ -70.344921080710918, -27.350075689084203 ], [ -70.344623621167088, -27.350458771116799 ], [ -70.344423386372895, -27.350851385334298 ], [ -70.344338270822448, -27.351016457267939 ], [ -70.344330639995604, -27.351185295620642 ], [ -70.344325834769236, -27.351291293740573 ], [ -70.34435630660191, -27.35139866694896 ], [ -70.344401663095709, -27.351558241023291 ], [ -70.344717694730306, -27.352429526161092 ], [ -70.344720541169679, -27.35243744062312 ], [ -70.344410305794611, -27.353550936776699 ] ] ] } },
{ "type": "Feature", "properties": { "zona": "4" }, "geometry": { "type": "Polygon", "coordinates": [ [ [ -70.34954250065897, -27.360549557173371 ], [ -70.349576029838843, -27.360523422005638 ], [ -70.351116242559669, -27.359325728960091 ], [ -70.351471650608545, -27.358874927775883 ], [ -70.351877653773343, -27.358389521941042 ], [ -70.352067288767387, -27.357921552797347 ], [ -70.352282770664388, -27.35713845654665 ], [ -70.352501235737392, -27.356134583564799 ], [ -70.352770508749501, -27.354812002181369 ], [ -70.352792807254119, -27.353855063049753 ], [ -70.35279247166126, -27.353854885804459 ], [ -70.35279451494759, -27.353769220288278 ], [ -70.352801056189932, -27.353429461973768 ], [ -70.352737466494617, -27.352669103573504 ], [ -70.352518363977708, -27.352631877777981 ], [ -70.352311222274338, -27.352755809705346 ], [ -70.352311364899478, -27.352746963979794 ], [ -70.351726429382069, -27.353549701908939 ], [ -70.348256187451241, -27.356304065252573 ], [ -70.350963815713499, -27.359164666774134 ], [ -70.350219384030837, -27.359893584829305 ], [ -70.349506613262875, -27.360346845246081 ], [ -70.34954250065897, -27.360549557173371 ] ] ] } },
{ "type": "Feature", "properties": { "zona": "5" }, "geometry": { "type": "Polygon", "coordinates": [ [ [ -70.348256187451241, -27.356304065252573 ], [ -70.345686967179603, -27.358343920594567 ], [ -70.34445576644724, -27.359474954302083 ], [ -70.346047054643279, -27.361338773833914 ], [ -70.346856068240129, -27.362202680289009 ], [ -70.349446122555435, -27.360624492501881 ], [ -70.34954250065897, -27.360549557173371 ], [ -70.349506613262875, -27.360346845246081 ], [ -70.350219384030837, -27.359893584829305 ], [ -70.350963815713499, -27.359164666774134 ], [ -70.348256187451241, -27.356304065252573 ] ] ] } },
{ "type": "Feature", "properties": { "zona": "6" }, "geometry": { "type": "Polygon", "coordinates": [ [ [ -70.343311400787542, -27.364362367047377 ], [ -70.346387752115803, -27.362488050998302 ], [ -70.346856068240129, -27.362202680289009 ], [ -70.346047054643279, -27.361338773833914 ], [ -70.34445576644724, -27.359474954302083 ], [ -70.3412970665362, -27.3618793260923 ], [ -70.342887351893609, -27.363509357373012 ], [ -70.342996950108045, -27.363872997085146 ], [ -70.343311400787542, -27.364362367047377 ] ] ] } },
{ "type": "Feature", "properties": { "zona": "9" }, "geometry": { "type": "Polygon", "coordinates": [ [ [ -70.335427961862138, -27.35123020057403 ], [ -70.335353088753479, -27.35056849044533 ], [ -70.333572102388942, -27.3512671601694 ], [ -70.332764721061451, -27.351283261822534 ], [ -70.32837254369035, -27.347815151912751 ], [ -70.326008023385484, -27.34962365227166 ], [ -70.327244295679023, -27.351393061100804 ], [ -70.329158348752912, -27.355908417698672 ], [ -70.328970719682133, -27.356691939474022 ], [ -70.329742484401919, -27.357173108100572 ], [ -70.329531384926682, -27.357820036751495 ], [ -70.329845730630737, -27.358481454735269 ], [ -70.329850165318362, -27.358852605889179 ], [ -70.330028478192858, -27.359124451396749 ], [ -70.330598431233383, -27.359702569059966 ], [ -70.331290650738353, -27.3597828792938 ], [ -70.332887143929156, -27.360191724686477 ], [ -70.336813204142047, -27.361204408423927 ], [ -70.338678056695954, -27.361007484916527 ], [ -70.340205520365743, -27.360741125961805 ], [ -70.340176695082306, -27.360375805704585 ], [ -70.335427961862138, -27.35123020057403 ] ] ] } },
{ "type": "Feature", "properties": { "zona": "10" }, "geometry": { "type": "Polygon", "coordinates": [ [ [ -70.329742484401919, -27.357173108100572 ], [ -70.329488615717651, -27.35721252783965 ], [ -70.329293522203699, -27.357364018087058 ], [ -70.32911515012006, -27.357784922194867 ], [ -70.328027726828083, -27.358361942894849 ], [ -70.327469486954229, -27.357429205109213 ], [ -70.323660340168487, -27.359311142736804 ], [ -70.321861912365392, -27.36046161946205 ], [ -70.323515193566323, -27.362668064153699 ], [ -70.32406119598771, -27.36339245843277 ], [ -70.324064167886192, -27.363389993524009 ], [ -70.325341342676666, -27.36233883831159 ], [ -70.32623549490728, -27.361573158409676 ], [ -70.327869276918349, -27.360606856003173 ], [ -70.329265321740252, -27.359874828621187 ], [ -70.330598431233383, -27.359702569059966 ], [ -70.330028478192858, -27.359124451396749 ], [ -70.329850165318362, -27.358852605889179 ], [ -70.329845730630737, -27.358481454735269 ], [ -70.329531384926682, -27.357820036751495 ], [ -70.329649520538069, -27.357458006594982 ], [ -70.329742484401919, -27.357173108100572 ] ] ] } },
{ "type": "Feature", "properties": { "zona": "20" }, "geometry": { "type": "Polygon", "coordinates": [ [ [ -70.3412970665362, -27.3618793260923 ], [ -70.340205520365743, -27.360741125961805 ], [ -70.338678056695954, -27.361007484916527 ], [ -70.336813204142047, -27.361204408423927 ], [ -70.332887143929156, -27.360191724686477 ], [ -70.333212334996233, -27.360754118023497 ], [ -70.334171101398766, -27.362414559233095 ], [ -70.334240662740513, -27.362340883210756 ], [ -70.335207152950858, -27.363642052755434 ], [ -70.336407524965054, -27.365686790218593 ], [ -70.338874647704586, -27.363898156876594 ], [ -70.3412970665362, -27.3618793260923 ] ] ] } },
{ "type": "Feature", "properties": { "zona": "21" }, "geometry": { "type": "Polygon", "coordinates": [ [ [ -70.342162094039523, -27.365309389453166 ], [ -70.342231719370574, -27.365310434688439 ], [ -70.342232892925992, -27.365310964894611 ], [ -70.342466498309349, -27.365408262455716 ], [ -70.342850342170735, -27.365568371260704 ], [ -70.343796191095478, -27.365736606890096 ], [ -70.3441373457255, -27.365854706274394 ], [ -70.343956364342247, -27.365434718004906 ], [ -70.343262819620946, -27.364281340187524 ], [ -70.343012646337115, -27.363888729803328 ], [ -70.342887351893609, -27.363509357373012 ], [ -70.3412970665362, -27.3618793260923 ], [ -70.338874647704586, -27.363898156876594 ], [ -70.336407524965054, -27.365686790218593 ], [ -70.336429564742744, -27.365717083229431 ], [ -70.33803479239576, -27.367925068221044 ], [ -70.338317117824332, -27.368267381576224 ], [ -70.338323547717181, -27.368275171544823 ], [ -70.340307764295233, -27.366336726892644 ], [ -70.340768622848486, -27.365900281302878 ], [ -70.341135029094801, -27.365623579138479 ], [ -70.341324881556318, -27.365480155022656 ], [ -70.341891847417187, -27.36530530930597 ], [ -70.342162094039523, -27.365309389453166 ] ] ] } },
{ "type": "Feature", "properties": { "zona": "28" }, "geometry": { "type": "Polygon", "coordinates": [ [ [ -70.329178346229455, -27.36279719094339 ], [ -70.32918174017081, -27.36279517315414 ], [ -70.330150076286159, -27.362232724665688 ], [ -70.333212334996233, -27.360754118023497 ], [ -70.332887143929156, -27.360191724686477 ], [ -70.331290650738353, -27.3597828792938 ], [ -70.330598431233383, -27.359702569059966 ], [ -70.329265321740252, -27.359874828621187 ], [ -70.327869276918349, -27.360606856003173 ], [ -70.328398075822079, -27.361480938962011 ], [ -70.329178346229455, -27.36279719094339 ] ] ] } },
{ "type": "Feature", "properties": { "zona": "26" }, "geometry": { "type": "Polygon", "coordinates": [ [ [ -70.333212334996233, -27.360754118023497 ], [ -70.330150076286159, -27.362232724665688 ], [ -70.32918174017081, -27.36279517315414 ], [ -70.329178346229455, -27.36279719094339 ], [ -70.329169569624554, -27.362802238194075 ], [ -70.329171255096611, -27.362803756374998 ], [ -70.329180270271038, -27.362811702677448 ], [ -70.331373107001752, -27.36473792221372 ], [ -70.334165056473609, -27.362404057910609 ], [ -70.333212334996233, -27.360754118023497 ] ] ] } },
{ "type": "Feature", "properties": { "zona": "24" }, "geometry": { "type": "Polygon", "coordinates": [ [ [ -70.336407533635892, -27.365687512124332 ], [ -70.335207152950858, -27.363642052755434 ], [ -70.334240662740513, -27.362340883210756 ], [ -70.334165056473609, -27.362404057910609 ], [ -70.331373107001752, -27.36473792221372 ], [ -70.333997361176927, -27.367372224533092 ], [ -70.333997445619602, -27.367372313974677 ], [ -70.333999014324917, -27.367371035501378 ], [ -70.33514369845399, -27.366468795503781 ], [ -70.336407533635892, -27.365687512124332 ] ] ] } },
{ "type": "Feature", "properties": { "zona": "22" }, "geometry": { "type": "Polygon", "coordinates": [ [ [ -70.336407533635892, -27.365687512124332 ], [ -70.33514369845399, -27.366468795503781 ], [ -70.333999014324917, -27.367371035501378 ], [ -70.335261900147898, -27.36852361810179 ], [ -70.336652859840385, -27.369911142340616 ], [ -70.336653024396881, -27.3699109602676 ], [ -70.336958520214694, -27.369614365504809 ], [ -70.337816465356383, -27.368772609250708 ], [ -70.338323547717181, -27.368275171544823 ], [ -70.338317117824332, -27.368267381576224 ], [ -70.33803479239576, -27.367925068221044 ], [ -70.336429564742744, -27.365717083229431 ], [ -70.336407533635892, -27.365687512124332 ] ] ] } },
{ "type": "Feature", "properties": { "zona": "29" }, "geometry": { "type": "Polygon", "coordinates": [ [ [ -70.329171255096611, -27.362803756374998 ], [ -70.329169569624554, -27.362802238194075 ], [ -70.329178346229455, -27.36279719094339 ], [ -70.328398075822079, -27.361480938962011 ], [ -70.327869276918349, -27.360606856003173 ], [ -70.32623549490728, -27.361573158409676 ], [ -70.325341342676666, -27.36233883831159 ], [ -70.327148653291559, -27.364072856041307 ], [ -70.327598294967189, -27.363677803066068 ], [ -70.329171255096611, -27.362803756374998 ] ] ] } },
{ "type": "Feature", "properties": { "zona": "27" }, "geometry": { "type": "Polygon", "coordinates": [ [ [ -70.327148653291559, -27.364072856041307 ], [ -70.329286641105398, -27.366216768272842 ], [ -70.331373107001752, -27.36473792221372 ], [ -70.329180270271038, -27.362811702677448 ], [ -70.329171255096611, -27.362803756374998 ], [ -70.327598294967189, -27.363677803066068 ], [ -70.327148653291559, -27.364072856041307 ] ] ] } },
{ "type": "Feature", "properties": { "zona": "25" }, "geometry": { "type": "Polygon", "coordinates": [ [ [ -70.333997361176927, -27.367372224533092 ], [ -70.331373107001752, -27.36473792221372 ], [ -70.329288526082578, -27.366234980567093 ], [ -70.330215976501037, -27.367110672786911 ], [ -70.331139213298741, -27.368106790274535 ], [ -70.331126411057312, -27.368116839722877 ], [ -70.331127002144498, -27.36811746582649 ], [ -70.331142199190978, -27.368105498316698 ], [ -70.331904466925309, -27.368955769229164 ], [ -70.331990786472261, -27.369048804079821 ], [ -70.331991033316996, -27.369048530978162 ], [ -70.333997361176927, -27.367372224533092 ] ] ] } },
{ "type": "Feature", "properties": { "zona": "23" }, "geometry": { "type": "Polygon", "coordinates": [ [ [ -70.334909069044684, -27.370684024322056 ], [ -70.334938445493862, -27.370735094778521 ], [ -70.335180017589735, -27.371099734610226 ], [ -70.335993846242047, -27.370414541095961 ], [ -70.336652859840385, -27.369911142340616 ], [ -70.335261900147898, -27.36852361810179 ], [ -70.333998929882242, -27.367370946059804 ], [ -70.333997939291834, -27.367371767764773 ], [ -70.331991033316996, -27.369048530978162 ], [ -70.333386767530698, -27.370524125657422 ], [ -70.334583371677027, -27.370117490092596 ], [ -70.334909069044684, -27.370684024322056 ] ] ] } },
{ "type": "Feature", "properties": { "zona": "11" }, "geometry": { "type": "Polygon", "coordinates": [ [ [ -70.321554979921629, -27.360666773318982 ], [ -70.320773576986468, -27.361121803275154 ], [ -70.319827581373147, -27.361687496245846 ], [ -70.319005827946071, -27.362178817200672 ], [ -70.318804424839669, -27.362299307235908 ], [ -70.317347768266487, -27.363088931922519 ], [ -70.31832197216049, -27.363769237414765 ], [ -70.31984009881279, -27.364036197870547 ], [ -70.320663453248386, -27.364514852420655 ], [ -70.321515641834495, -27.365083207089988 ], [ -70.321788887778197, -27.364792364894889 ], [ -70.322152677363576, -27.36502131056988 ], [ -70.322451874839487, -27.365209623466807 ], [ -70.32245129990342, -27.365210350904935 ], [ -70.32245188770969, -27.365210706331634 ], [ -70.324059028678619, -27.363392478989955 ], [ -70.323515197859379, -27.362668425108605 ], [ -70.32186166980037, -27.360462253501584 ], [ -70.321554979921629, -27.360666773318982 ] ] ] } },
{ "type": "Feature", "properties": { "zona": "12" }, "geometry": { "type": "Polygon", "coordinates": [ [ [ -70.317347768266487, -27.363088931922519 ], [ -70.315649964873842, -27.364102015294041 ], [ -70.314652481499124, -27.364653809945953 ], [ -70.31465399476059, -27.36465487868287 ], [ -70.314651761118057, -27.3646563437044 ], [ -70.314651931035172, -27.364656612851327 ], [ -70.314652840524346, -27.364655972542288 ], [ -70.316295130501317, -27.366432931632222 ], [ -70.318053347167648, -27.367568458579044 ], [ -70.31867168327841, -27.368143189691253 ], [ -70.31943344729541, -27.36845971364837 ], [ -70.320983180837544, -27.367106844556105 ], [ -70.321842602470312, -27.365994513190326 ], [ -70.32195173045892, -27.36585395492633 ], [ -70.322432578159905, -27.365234444231465 ], [ -70.32245129990342, -27.365210350904935 ], [ -70.322451874839487, -27.365209623466807 ], [ -70.322152677363576, -27.36502131056988 ], [ -70.321788887778197, -27.364792364894889 ], [ -70.321515641834495, -27.365083207089988 ], [ -70.320663453248386, -27.364514852420655 ], [ -70.31984009881279, -27.364036197870547 ], [ -70.31832197216049, -27.363769237414765 ], [ -70.317347768266487, -27.363088931922519 ] ] ] } },
{ "type": "Feature", "properties": { "zona": "13" }, "geometry": { "type": "Polygon", "coordinates": [ [ [ -70.314651931035172, -27.364656612851327 ], [ -70.312862264351367, -27.365872505962155 ], [ -70.311638690125378, -27.367749999352839 ], [ -70.311791895198226, -27.369359505664963 ], [ -70.313713810579003, -27.370328482726883 ], [ -70.313505329525654, -27.370550291531838 ], [ -70.314416285825516, -27.371307207406495 ], [ -70.314418651909449, -27.371507447632112 ], [ -70.314708835625879, -27.371779161558663 ], [ -70.315316666291281, -27.372332075522536 ], [ -70.315368506257812, -27.372288177195994 ], [ -70.318616832203475, -27.36953651967848 ], [ -70.318617657274913, -27.369535789892193 ], [ -70.318620201947084, -27.369532426641044 ], [ -70.31943344729541, -27.36845971364837 ], [ -70.31867168327841, -27.368143189691253 ], [ -70.318053347167648, -27.367568458579044 ], [ -70.316295130501317, -27.366432931632222 ], [ -70.314652840524346, -27.364655972542288 ], [ -70.314651931035172, -27.364656612851327 ] ] ] } },
{ "type": "Feature", "properties": { "zona": "14" }, "geometry": { "type": "Polygon", "coordinates": [ [ [ -70.307044024345203, -27.37401505727496 ], [ -70.307032466895407, -27.374031951852206 ], [ -70.306259689969963, -27.374666599107535 ], [ -70.305062626306579, -27.37656824728904 ], [ -70.305092808903709, -27.37672454724289 ], [ -70.307476686641451, -27.37788250948055 ], [ -70.307808566491531, -27.378069644491831 ], [ -70.31399454212935, -27.373498814125604 ], [ -70.315307757835015, -27.372340191637747 ], [ -70.314708835625879, -27.371779161558663 ], [ -70.314418651909449, -27.371507447632112 ], [ -70.314416285825516, -27.371307207406495 ], [ -70.313505329525654, -27.370550291531838 ], [ -70.313713810579003, -27.370328482726883 ], [ -70.311791895198226, -27.369359505664963 ], [ -70.310382358656312, -27.371542604979094 ], [ -70.309536718404757, -27.372769536488281 ], [ -70.307664742776538, -27.373106119681157 ], [ -70.307044024345203, -27.37401505727496 ] ] ] } },
{ "type": "Feature", "properties": { "zona": "15" }, "geometry": { "type": "Polygon", "coordinates": [ [ [ -70.311791895198226, -27.369359505664963 ], [ -70.311474460176086, -27.369844328549707 ], [ -70.31107493884906, -27.369582569251961 ], [ -70.310441295750934, -27.36868963888848 ], [ -70.310009121299473, -27.36823856949152 ], [ -70.309474320137596, -27.36712161056705 ], [ -70.308308076365577, -27.365833500084321 ], [ -70.307223180280516, -27.364825201989245 ], [ -70.305567146671549, -27.36428566763502 ], [ -70.30481127574204, -27.365304970937544 ], [ -70.303723104362646, -27.368361322116296 ], [ -70.302461056881896, -27.370272490641632 ], [ -70.301879129795239, -27.371029064527505 ], [ -70.300466384942979, -27.371330401312704 ], [ -70.298129222721798, -27.370563740903531 ], [ -70.300494211887994, -27.372961758611183 ], [ -70.302167774783825, -27.373970933493226 ], [ -70.303203345701235, -27.374593733407448 ], [ -70.304151358498331, -27.375889970500261 ], [ -70.305061153204818, -27.376570607542678 ], [ -70.305062626306579, -27.37656824728904 ], [ -70.306259689969963, -27.374666599107535 ], [ -70.307032466895407, -27.374031951852206 ], [ -70.307044024345203, -27.37401505727496 ], [ -70.307664742776538, -27.373106119681157 ], [ -70.309536718404757, -27.372769536488281 ], [ -70.310382358656312, -27.371542604979094 ], [ -70.311791895198226, -27.369359505664963 ] ] ] } },
{ "type": "Feature", "properties": { "zona": "16" }, "geometry": { "type": "Polygon", "coordinates": [ [ [ -70.314652481499124, -27.364653809945953 ], [ -70.313053114692323, -27.363479019365485 ], [ -70.311568813206435, -27.362465667092916 ], [ -70.310175677240764, -27.361319408032294 ], [ -70.309881141324283, -27.361078318617157 ], [ -70.308238524143718, -27.360598343465153 ], [ -70.30422261939772, -27.359594261227276 ], [ -70.303774330489048, -27.361768764694745 ], [ -70.305567146671549, -27.36428566763502 ], [ -70.307223180280516, -27.364825201989245 ], [ -70.308308076365577, -27.365833500084321 ], [ -70.309474320137596, -27.36712161056705 ], [ -70.310009121299473, -27.36823856949152 ], [ -70.310441295750934, -27.36868963888848 ], [ -70.31107493884906, -27.369582569251961 ], [ -70.311474460176086, -27.369844328549707 ], [ -70.311791895198226, -27.369359505664963 ], [ -70.311638690125378, -27.367749999352839 ], [ -70.312862264351367, -27.365872505962155 ], [ -70.314651931035172, -27.364656612851327 ], [ -70.314651761118057, -27.3646563437044 ], [ -70.31465399476059, -27.36465487868287 ], [ -70.314652481499124, -27.364653809945953 ] ] ] } },
{ "type": "Feature", "properties": { "zona": "17" }, "geometry": { "type": "Polygon", "coordinates": [ [ [ -70.309881141324283, -27.361078318617157 ], [ -70.310175677240764, -27.361319408032294 ], [ -70.311568813206435, -27.362465667092916 ], [ -70.313053114692323, -27.363479019365485 ], [ -70.314652481499124, -27.364653809945953 ], [ -70.315649964873842, -27.364102015294041 ], [ -70.317347768266487, -27.363088931922519 ], [ -70.316474973288635, -27.361896131277671 ], [ -70.316474720014554, -27.361895862918953 ], [ -70.314683684099862, -27.35960317653976 ], [ -70.313987954848798, -27.358497405743176 ], [ -70.31039678796661, -27.35358910931183 ], [ -70.309662557193903, -27.35351179549043 ], [ -70.308097382654907, -27.354334650341475 ], [ -70.3070275756276, -27.355581175177839 ], [ -70.305516194024122, -27.357128110585467 ], [ -70.304831805735034, -27.358801143328915 ], [ -70.304226370411499, -27.359594226184917 ], [ -70.308235014685323, -27.360597654358564 ], [ -70.309880720291815, -27.361077961570853 ], [ -70.309881141324283, -27.361078318617157 ] ] ] } },
{ "type": "Feature", "properties": { "zona": "18" }, "geometry": { "type": "Polygon", "coordinates": [ [ [ -70.321861912365392, -27.36046161946205 ], [ -70.321524066008266, -27.360113388499499 ], [ -70.321300410270098, -27.360163608194689 ], [ -70.321131750659717, -27.360127480310965 ], [ -70.320869567677576, -27.360071299355639 ], [ -70.31994943774211, -27.359731370174973 ], [ -70.319740108547933, -27.359654020296233 ], [ -70.319528602765487, -27.359575878426398 ], [ -70.318580888354191, -27.359088282503656 ], [ -70.318071598763595, -27.358826405752289 ], [ -70.317503581694382, -27.358363825837898 ], [ -70.316476733584295, -27.357527426972599 ], [ -70.317057679513354, -27.357153009433443 ], [ -70.316636255194567, -27.356615309074073 ], [ -70.316148646925271, -27.355993126269802 ], [ -70.315327651180695, -27.355488338148582 ], [ -70.314965403467539, -27.354948540513586 ], [ -70.314973152733828, -27.354630700160929 ], [ -70.314672532614679, -27.354537235182455 ], [ -70.312964035565329, -27.354006040255477 ], [ -70.311839410669407, -27.352406744632269 ], [ -70.31039678796661, -27.35358910931183 ], [ -70.313987954848798, -27.358497405743176 ], [ -70.314683684099862, -27.35960317653976 ], [ -70.316474720014554, -27.361895862918953 ], [ -70.316474973288635, -27.361896131277671 ], [ -70.317347768266487, -27.363088931922519 ], [ -70.318804424839669, -27.362299307235908 ], [ -70.319005827946071, -27.362178817200672 ], [ -70.319827581373147, -27.361687496245846 ], [ -70.320773576986468, -27.361121803275154 ], [ -70.321554979921629, -27.360666773318982 ], [ -70.321861912365392, -27.36046161946205 ] ] ] } },
{ "type": "Feature", "properties": { "zona": "19" }, "geometry": { "type": "Polygon", "coordinates": [ [ [ -70.329742484401919, -27.357173108100572 ], [ -70.328970719682133, -27.356691939474022 ], [ -70.32915858257627, -27.35592799947711 ], [ -70.327244295679023, -27.351393061100804 ], [ -70.326008023385484, -27.34962365227166 ], [ -70.320288935434817, -27.345789096926048 ], [ -70.318655108142494, -27.346239715270187 ], [ -70.311839410669407, -27.352406744632269 ], [ -70.312964035565329, -27.354006040255477 ], [ -70.314672532614679, -27.354537235182455 ], [ -70.314973152733828, -27.354630700160929 ], [ -70.314965403467539, -27.354948540513586 ], [ -70.315327651180695, -27.355488338148582 ], [ -70.316148646925271, -27.355993126269802 ], [ -70.316636255194567, -27.356615309074073 ], [ -70.317057679513354, -27.357153009433443 ], [ -70.316476733584295, -27.357527426972599 ], [ -70.317503581694382, -27.358363825837898 ], [ -70.318071598763595, -27.358826405752289 ], [ -70.318580888354191, -27.359088282503656 ], [ -70.319528602765487, -27.359575878426398 ], [ -70.319740108547933, -27.359654020296233 ], [ -70.31994943774211, -27.359731370174973 ], [ -70.320869567677576, -27.360071299355639 ], [ -70.321131750659717, -27.360127480310965 ], [ -70.321300410270098, -27.360163608194689 ], [ -70.321524066008266, -27.360113388499499 ], [ -70.321861912365392, -27.36046161946205 ], [ -70.323660340168487, -27.359311142736804 ], [ -70.327469486954229, -27.357429205109213 ], [ -70.328027726828083, -27.358361942894849 ], [ -70.32911515012006, -27.357784922194867 ], [ -70.329293522203699, -27.357364018087058 ], [ -70.329488615717651, -27.35721252783965 ], [ -70.329742484401919, -27.357173108100572 ] ] ] } },
{ "type": "Feature", "properties": { "zona": "30" }, "geometry": { "type": "Polygon", "coordinates": [ [ [ -70.327148653291559, -27.364072856041307 ], [ -70.325341342676666, -27.36233883831159 ], [ -70.324064167886192, -27.363389993524009 ], [ -70.322432578159905, -27.365234444231465 ], [ -70.32195173045892, -27.36585395492633 ], [ -70.321901399501371, -27.365919140042237 ], [ -70.323092212918652, -27.367297329216537 ], [ -70.327148653291559, -27.364072856041307 ] ] ] } },
{ "type": "Feature", "properties": { "zona": "31" }, "geometry": { "type": "Polygon", "coordinates": [ [ [ -70.323187132317855, -27.36742720002486 ], [ -70.324736240719716, -27.369485792063958 ], [ -70.325233262370787, -27.370210103407043 ], [ -70.324754450587946, -27.369509715654232 ], [ -70.329277733100156, -27.366224794994693 ], [ -70.329288526082578, -27.366234980567093 ], [ -70.331373107001752, -27.36473792221372 ], [ -70.329286641105398, -27.366216768272842 ], [ -70.327148653291559, -27.364072856041307 ], [ -70.323091581443975, -27.367300313414649 ], [ -70.323092257990169, -27.367301119241322 ], [ -70.323187132317855, -27.36742720002486 ] ] ] } },
{ "type": "Feature", "properties": { "zona": "32" }, "geometry": { "type": "Polygon", "coordinates": [ [ [ -70.326325060208148, -27.371884225179073 ], [ -70.331127002144498, -27.36811746582649 ], [ -70.331126411057312, -27.368116839722877 ], [ -70.331139213298741, -27.368106790274535 ], [ -70.330215976501037, -27.367110672786911 ], [ -70.329288526082578, -27.366234980567093 ], [ -70.329277733100156, -27.366224794994693 ], [ -70.324754450587946, -27.369509715654232 ], [ -70.325233262370787, -27.370210103407043 ], [ -70.325347973272628, -27.370377237879357 ], [ -70.325347641969913, -27.370377421522942 ], [ -70.325355787829466, -27.370389347256456 ], [ -70.326325060208148, -27.371884225179073 ] ] ] } },
{ "type": "Feature", "properties": { "zona": "33" }, "geometry": { "type": "Polygon", "coordinates": [ [ [ -70.327610777158711, -27.373994649912788 ], [ -70.32962174998768, -27.372945136180967 ], [ -70.332513619950419, -27.371534494996748 ], [ -70.334938445493862, -27.370735094778521 ], [ -70.334909069044684, -27.370684024322056 ], [ -70.334583371677027, -27.370117490092596 ], [ -70.333386767530698, -27.370524125657422 ], [ -70.331991033316996, -27.369048530978162 ], [ -70.331990786472261, -27.369048804079821 ], [ -70.331904466925309, -27.368955769229164 ], [ -70.331142199190978, -27.368105498316698 ], [ -70.331127002144498, -27.36811746582649 ], [ -70.326325060208148, -27.371884225179073 ], [ -70.327610777158711, -27.373994649912788 ] ] ] } },
{ "type": "Feature", "properties": { "zona": "41" }, "geometry": { "type": "Polygon", "coordinates": [ [ [ -70.321356036342635, -27.37306804304415 ], [ -70.321355952977257, -27.373068043833452 ], [ -70.319835511420706, -27.370845973854351 ], [ -70.319113670310685, -27.370065827702255 ], [ -70.318616832203475, -27.36953651967848 ], [ -70.315368506257812, -27.372288177195994 ], [ -70.31399454212935, -27.373498814125604 ], [ -70.316508579188849, -27.375839461844251 ], [ -70.321356036342635, -27.37306804304415 ] ] ] } },
{ "type": "Feature", "properties": { "zona": "39" }, "geometry": { "type": "Polygon", "coordinates": [ [ [ -70.321356036342635, -27.37306804304415 ], [ -70.316508579188849, -27.375839461844251 ], [ -70.319248891943801, -27.378950090449809 ], [ -70.321446280267153, -27.377491725993107 ], [ -70.322131212123054, -27.377083360523457 ], [ -70.322850759556715, -27.376557430537783 ], [ -70.323098067402498, -27.376270982906355 ], [ -70.324635101049211, -27.375456978310808 ], [ -70.322430661467791, -27.372409516945407 ], [ -70.321356036342635, -27.37306804304415 ] ] ] } },
{ "type": "Feature", "properties": { "zona": "38" }, "geometry": { "type": "Polygon", "coordinates": [ [ [ -70.327610777158711, -27.373994649912788 ], [ -70.326325060208148, -27.371884225179073 ], [ -70.325355787829466, -27.370389347256456 ], [ -70.325347641969913, -27.370377421522942 ], [ -70.322447048622848, -27.372399344049455 ], [ -70.322430661467791, -27.372409516945407 ], [ -70.324635101049211, -27.375456978310808 ], [ -70.327610777158711, -27.373994649912788 ] ] ] } },
{ "type": "Feature", "properties": { "zona": "40" }, "geometry": { "type": "Polygon", "coordinates": [ [ [ -70.320983180837544, -27.367106844556105 ], [ -70.31943344729541, -27.36845971364837 ], [ -70.318620201947084, -27.369532426641044 ], [ -70.318617657274913, -27.369535789892193 ], [ -70.318616832203475, -27.36953651967848 ], [ -70.319113670310685, -27.370065827702255 ], [ -70.319835511420706, -27.370845973854351 ], [ -70.321355952977257, -27.373068043833452 ], [ -70.321356036342635, -27.37306804304415 ], [ -70.322430661467791, -27.372409516945407 ], [ -70.322447048622848, -27.372399344049455 ], [ -70.325347641969913, -27.370377421522942 ], [ -70.325347973272628, -27.370377237879357 ], [ -70.325233262370787, -27.370210103407043 ], [ -70.324736240719716, -27.369485792063958 ], [ -70.323187132317855, -27.36742720002486 ], [ -70.323092257990169, -27.367301119241322 ], [ -70.323091581443975, -27.367300313414649 ], [ -70.321901403789781, -27.365919500997229 ], [ -70.320983180837544, -27.367106844556105 ] ] ] } },
{ "type": "Feature", "properties": { "zona": "44" }, "geometry": { "type": "Polygon", "coordinates": [ [ [ -70.306595394875657, -27.38419953266234 ], [ -70.306195799456475, -27.385936415898009 ], [ -70.308545365148646, -27.383275699958435 ], [ -70.30995259195636, -27.381596499562683 ], [ -70.310654172295557, -27.381059698639053 ], [ -70.311524369899672, -27.380793951588263 ], [ -70.31285263818296, -27.379707498379741 ], [ -70.314018978433779, -27.378735639832858 ], [ -70.313923686668232, -27.378553061098025 ], [ -70.315382849441605, -27.376948406534698 ], [ -70.316508579188849, -27.375839461844251 ], [ -70.31399454212935, -27.373498814125604 ], [ -70.307808566491531, -27.378069644491831 ], [ -70.307372831192154, -27.379091105078171 ], [ -70.306824327050975, -27.381826817917336 ], [ -70.306824246860344, -27.381827089415459 ], [ -70.306595394875657, -27.38419953266234 ] ] ] } },
{ "type": "Feature", "properties": { "zona": "43" }, "geometry": { "type": "Polygon", "coordinates": [ [ [ -70.319248891943801, -27.378950090449809 ], [ -70.316508579188849, -27.375839461844251 ], [ -70.315382849441605, -27.376948406534698 ], [ -70.313923686668232, -27.378553061098025 ], [ -70.314018978433779, -27.378735639832858 ], [ -70.31285263818296, -27.379707498379741 ], [ -70.311524369899672, -27.380793951588263 ], [ -70.310654172295557, -27.381059698639053 ], [ -70.30995259195636, -27.381596499562683 ], [ -70.308545365148646, -27.383275699958435 ], [ -70.31317545882446, -27.386637920565903 ], [ -70.313583730777125, -27.385002287997128 ], [ -70.315122048626932, -27.383427755109611 ], [ -70.317319479907923, -27.380891249976909 ], [ -70.319248891943801, -27.378950090449809 ] ] ] } },
{ "type": "Feature", "properties": { "zona": "42" }, "geometry": { "type": "Polygon", "coordinates": [ [ [ -70.319078899075151, -27.387399341298806 ], [ -70.319973251902397, -27.387093964170553 ], [ -70.319973834462473, -27.387093868410076 ], [ -70.320319803148408, -27.387030940277661 ], [ -70.320324130120014, -27.387030177338548 ], [ -70.320447046910502, -27.387009700803265 ], [ -70.3207227554404, -27.386963681417992 ], [ -70.320755913284856, -27.386961201551134 ], [ -70.321529467571622, -27.386904239469132 ], [ -70.321961221256089, -27.386552421008847 ], [ -70.322044733991049, -27.385855000345632 ], [ -70.322313136848308, -27.38525816936313 ], [ -70.322809520960945, -27.384536348145666 ], [ -70.323488510454965, -27.383730757201686 ], [ -70.32233157570812, -27.382602066494112 ], [ -70.319248891943801, -27.378950090449809 ], [ -70.317319479907923, -27.380891249976909 ], [ -70.315122048626932, -27.383427755109611 ], [ -70.313583730777125, -27.385002287997128 ], [ -70.31317545882446, -27.386637920565903 ], [ -70.317317251565967, -27.389520586707679 ], [ -70.317203910851944, -27.389230604828075 ], [ -70.317194788959597, -27.388854895304569 ], [ -70.317918339664175, -27.388250434852239 ], [ -70.318466848762796, -27.387722712092398 ], [ -70.318485162576849, -27.387713062899071 ], [ -70.319078899075151, -27.387399341298806 ] ] ] } },
{ "type": "Feature", "properties": { "zona": "36" }, "geometry": { "type": "Polygon", "coordinates": [ [ [ -70.330921052982333, -27.375648151450299 ], [ -70.332729060162038, -27.373740640335509 ], [ -70.332633665745703, -27.373509883189676 ], [ -70.33295979184426, -27.372894612560639 ], [ -70.33350852859445, -27.372293729852633 ], [ -70.334720468752124, -27.371364046043727 ], [ -70.335180017589735, -27.371099734610226 ], [ -70.334938445493862, -27.370735094778521 ], [ -70.332513619950419, -27.371534494996748 ], [ -70.32962174998768, -27.372945136180967 ], [ -70.327610777158711, -27.373994649912788 ], [ -70.324635101049211, -27.375456978310808 ], [ -70.323098067402498, -27.376270982906355 ], [ -70.322850759556715, -27.376557430537783 ], [ -70.322131790337608, -27.377082903801384 ], [ -70.324148411810469, -27.379341660000208 ], [ -70.323409912282116, -27.380658084338165 ], [ -70.323335357552239, -27.381553787624725 ], [ -70.323196315360974, -27.381697067427449 ], [ -70.322180268618951, -27.382422371258809 ], [ -70.32233157570812, -27.382602066494112 ], [ -70.323488510454965, -27.383730757201686 ], [ -70.324031179365264, -27.383199819940746 ], [ -70.324811698385275, -27.382211227862967 ], [ -70.326934347070036, -27.379940888847532 ], [ -70.329474744315149, -27.377317097138828 ], [ -70.330920805041103, -27.375648334312135 ], [ -70.330921052982333, -27.375648151450299 ] ] ] } },
{ "type": "Feature", "properties": { "zona": "67" }, "geometry": { "type": "Polygon", "coordinates": [ [ [ -70.336630772468311, -27.377772358320449 ], [ -70.336559119379913, -27.376111660859465 ], [ -70.336257882711408, -27.372655952760869 ], [ -70.335180017589735, -27.371099734610226 ], [ -70.334720468752124, -27.371364046043727 ], [ -70.33350852859445, -27.372293729852633 ], [ -70.33295979184426, -27.372894612560639 ], [ -70.332633665745703, -27.373509883189676 ], [ -70.332729060162038, -27.373740640335509 ], [ -70.330921052982333, -27.375648151450299 ], [ -70.330920805041103, -27.375648334312135 ], [ -70.329474744315149, -27.377317097138828 ], [ -70.326934347070036, -27.379940888847532 ], [ -70.324811698385275, -27.382211227862967 ], [ -70.324031179365264, -27.383199819940746 ], [ -70.323488510454965, -27.383730757201686 ], [ -70.322809520960945, -27.384536348145666 ], [ -70.322313136848308, -27.38525816936313 ], [ -70.322044733991049, -27.385855000345632 ], [ -70.321961221256089, -27.386552421008847 ], [ -70.321529467571622, -27.386904239469132 ], [ -70.320755913284856, -27.386961201551134 ], [ -70.3207227554404, -27.386963681417992 ], [ -70.320447046910502, -27.387009700803265 ], [ -70.320324130120014, -27.387030177338548 ], [ -70.320319803148408, -27.387030940277661 ], [ -70.319973834462473, -27.387093868410076 ], [ -70.319973251902397, -27.387093964170553 ], [ -70.319078899075151, -27.387399341298806 ], [ -70.318485162576849, -27.387713062899071 ], [ -70.318466848762796, -27.387722712092398 ], [ -70.317918339664175, -27.388250434852239 ], [ -70.317194788959597, -27.388854895304569 ], [ -70.317203910851944, -27.389230604828075 ], [ -70.317317251565967, -27.389520586707679 ], [ -70.317600536966538, -27.390352260591516 ], [ -70.326068271230497, -27.399496680877576 ], [ -70.32628359665533, -27.39902868092781 ], [ -70.327539768531224, -27.399008246513187 ], [ -70.328486881935262, -27.397997471500545 ], [ -70.328028877696113, -27.396943219670757 ], [ -70.328885650424183, -27.394739496636344 ], [ -70.329683850896146, -27.39366479292088 ], [ -70.331906114020967, -27.394026785950221 ], [ -70.332738136364384, -27.395406677501811 ], [ -70.333157663063446, -27.39367459371686 ], [ -70.333813604726856, -27.393000305060824 ], [ -70.335599627535302, -27.393471097901362 ], [ -70.335805728377878, -27.394342005545539 ], [ -70.336474388179752, -27.394899651967147 ], [ -70.338308761846505, -27.395566506145922 ], [ -70.338322665151779, -27.395571516892339 ], [ -70.340564884863454, -27.394368275725157 ], [ -70.34078752061609, -27.394691751177234 ], [ -70.340794479793743, -27.394701792075097 ], [ -70.341540874722398, -27.394788744203538 ], [ -70.343883113782297, -27.395061489036266 ], [ -70.343570784029012, -27.389271651741392 ], [ -70.343192411536762, -27.389108967995803 ], [ -70.342660282753812, -27.388877820759284 ], [ -70.342175529224747, -27.388792507955589 ], [ -70.341873363422934, -27.388739370619678 ], [ -70.341574790690771, -27.388686829805128 ], [ -70.341530314038678, -27.388684189073828 ], [ -70.34064437302176, -27.388631878426391 ], [ -70.340400545874743, -27.38861752545218 ], [ -70.340376946823781, -27.388631289428353 ], [ -70.34012364888099, -27.388778932294752 ], [ -70.339540706081607, -27.389118810449286 ], [ -70.338082770337834, -27.388460181716216 ], [ -70.336630772468311, -27.377772358320449 ] ] ] } },
{ "type": "Feature", "properties": { "zona": "37" }, "geometry": { "type": "Polygon", "coordinates": [ [ [ -70.322131790337608, -27.377082903801384 ], [ -70.321446280267153, -27.377491725993107 ], [ -70.319248891943801, -27.378950090449809 ], [ -70.322180189538912, -27.382422733002944 ], [ -70.323184089482226, -27.381713698875625 ], [ -70.323335357552239, -27.381553787624725 ], [ -70.323409912282116, -27.380658084338165 ], [ -70.324148411810469, -27.379341660000208 ], [ -70.322131790337608, -27.377082903801384 ] ] ] } },
{ "type": "Feature", "properties": { "zona": "8" }, "geometry": { "type": "Polygon", "coordinates": [ [ [ -70.269465337805073, -27.412890511739654 ], [ -70.267477277145275, -27.412787935240768 ], [ -70.266607400996321, -27.412938073434837 ], [ -70.266795590547929, -27.413481380185129 ], [ -70.268036465358762, -27.416603559695371 ], [ -70.269301354376623, -27.417829187328632 ], [ -70.270373366496955, -27.418772545772164 ], [ -70.27203919919593, -27.420145479556918 ], [ -70.273929360358125, -27.419068331940149 ], [ -70.273983326668144, -27.419199151409522 ], [ -70.274663045570023, -27.418640522428067 ], [ -70.269465337805073, -27.412890511739654 ] ] ] } },
{ "type": "Feature", "properties": { "zona": "7" }, "geometry": { "type": "Polygon", "coordinates": [ [ [ -70.34954250065897, -27.360549557173371 ], [ -70.349446122555435, -27.360624492501881 ], [ -70.346387752115803, -27.362488050998302 ], [ -70.343311400787542, -27.364362367047377 ], [ -70.344188685026424, -27.365825783634754 ], [ -70.344300679512173, -27.36583517390617 ], [ -70.344675157955635, -27.365792579580003 ], [ -70.344927951330789, -27.365656215443142 ], [ -70.345135067301484, -27.365527510919659 ], [ -70.345585896114713, -27.36502878495989 ], [ -70.345674268961716, -27.364925591347557 ], [ -70.346345441347168, -27.36410363487601 ], [ -70.347025646603768, -27.363581032354372 ], [ -70.347457401034973, -27.363470552770799 ], [ -70.347932295964213, -27.363287727350304 ], [ -70.348493414608186, -27.362886749373089 ], [ -70.348948584342509, -27.362514409076528 ], [ -70.349927198531603, -27.361584776870778 ], [ -70.350234265009419, -27.361264403735873 ], [ -70.351000098886274, -27.360622187531234 ], [ -70.35114913826304, -27.360497195141978 ], [ -70.351156565709587, -27.360490986367612 ], [ -70.35170393324367, -27.360119911049189 ], [ -70.351942138812575, -27.359957955138469 ], [ -70.352462297111913, -27.359461153788804 ], [ -70.352463040719584, -27.359460605094981 ], [ -70.352464194518376, -27.359459510937391 ], [ -70.35296335649015, -27.359094312766537 ], [ -70.353310368635178, -27.358735280758019 ], [ -70.353715809754547, -27.358314041790535 ], [ -70.353726284761422, -27.358304825140436 ], [ -70.353743738325647, -27.358286786735047 ], [ -70.354268970180257, -27.357824585113736 ], [ -70.354292487820999, -27.357749992379894 ], [ -70.354345233431062, -27.357576835704641 ], [ -70.35408343202522, -27.357059364335111 ], [ -70.354067878340672, -27.356404402603399 ], [ -70.353864066689638, -27.356041775850851 ], [ -70.353636234308482, -27.355609439167505 ], [ -70.353595191004558, -27.355531591767324 ], [ -70.353496380560685, -27.3551659608801 ], [ -70.353623455503396, -27.35448317335403 ], [ -70.353647401337184, -27.354169598886756 ], [ -70.353346102500055, -27.354125500238641 ], [ -70.352792807254119, -27.353855063049753 ], [ -70.352770508749501, -27.354812002181369 ], [ -70.352501235737392, -27.356134583564799 ], [ -70.352282770664388, -27.35713845654665 ], [ -70.352067288767387, -27.357921552797347 ], [ -70.351877653773343, -27.358389521941042 ], [ -70.351471650608545, -27.358874927775883 ], [ -70.351116242559669, -27.359325728960091 ], [ -70.349576029838843, -27.360523422005638 ], [ -70.34954250065897, -27.360549557173371 ] ] ] } },
{ "type": "Feature", "properties": { "zona": "34" }, "geometry": { "type": "Polygon", "coordinates": [ [ [ -70.341864880987544, -27.371191301452562 ], [ -70.345329212355821, -27.372702640795417 ], [ -70.350054272624988, -27.374763946962272 ], [ -70.356407740099371, -27.370252476071784 ], [ -70.360799451865546, -27.366320757386156 ], [ -70.358819073871189, -27.358487287864392 ], [ -70.358038987794501, -27.354779358302871 ], [ -70.361847038319453, -27.352795342896489 ], [ -70.361632359618312, -27.35252028432237 ], [ -70.359292636417649, -27.349637898799955 ], [ -70.359286593983114, -27.349641387054071 ], [ -70.357750134940559, -27.350103515374396 ], [ -70.35691576924178, -27.350810960108245 ], [ -70.355651369230088, -27.351650096718416 ], [ -70.354872615154974, -27.352244089117715 ], [ -70.354315803540544, -27.352636566164325 ], [ -70.353960146807069, -27.353002723574487 ], [ -70.353682091564337, -27.353526242944909 ], [ -70.353671936215818, -27.353719382665243 ], [ -70.353648403733274, -27.354169769665305 ], [ -70.353647401337184, -27.354169598886756 ], [ -70.353623455503396, -27.35448317335403 ], [ -70.353496380560685, -27.3551659608801 ], [ -70.353595191004558, -27.355531591767324 ], [ -70.353636234308482, -27.355609439167505 ], [ -70.353864066689638, -27.356041775850851 ], [ -70.354067878340672, -27.356404402603399 ], [ -70.35408343202522, -27.357059364335111 ], [ -70.354345233431062, -27.357576835704641 ], [ -70.354292487820999, -27.357749992379894 ], [ -70.354268970180257, -27.357824585113736 ], [ -70.353743738325647, -27.358286786735047 ], [ -70.353726284761422, -27.358304825140436 ], [ -70.353715809754547, -27.358314041790535 ], [ -70.353310368635178, -27.358735280758019 ], [ -70.35296335649015, -27.359094312766537 ], [ -70.352464194518376, -27.359459510937391 ], [ -70.352463040719584, -27.359460605094981 ], [ -70.352462297111913, -27.359461153788804 ], [ -70.351942138812575, -27.359957955138469 ], [ -70.35170393324367, -27.360119911049189 ], [ -70.351156565709587, -27.360490986367612 ], [ -70.35114913826304, -27.360497195141978 ], [ -70.351000098886274, -27.360622187531234 ], [ -70.350234265009419, -27.361264403735873 ], [ -70.349927198531603, -27.361584776870778 ], [ -70.348948584342509, -27.362514409076528 ], [ -70.348493414608186, -27.362886749373089 ], [ -70.347932295964213, -27.363287727350304 ], [ -70.347457401034973, -27.363470552770799 ], [ -70.347025646603768, -27.363581032354372 ], [ -70.346345441347168, -27.36410363487601 ], [ -70.345674268961716, -27.364925591347557 ], [ -70.345585896114713, -27.36502878495989 ], [ -70.345135067301484, -27.365527510919659 ], [ -70.344927951330789, -27.365656215443142 ], [ -70.344675157955635, -27.365792579580003 ], [ -70.344300679512173, -27.36583517390617 ], [ -70.344135586461206, -27.365854001227955 ], [ -70.344142658619887, -27.365901133052827 ], [ -70.344478194664561, -27.368134437535158 ], [ -70.341864880987544, -27.371191301452562 ] ] ] } },
{ "type": "Feature", "properties": { "zona": "35" }, "geometry": { "type": "Polygon", "coordinates": [ [ [ -70.340376946823781, -27.388631289428353 ], [ -70.340400545874743, -27.38861752545218 ], [ -70.34064437302176, -27.388631878426391 ], [ -70.341530314038678, -27.388684189073828 ], [ -70.341574790690771, -27.388686829805128 ], [ -70.341873363422934, -27.388739370619678 ], [ -70.342175529224747, -27.388792507955589 ], [ -70.342660282753812, -27.388877820759284 ], [ -70.343192411536762, -27.389108967995803 ], [ -70.343570699561482, -27.389271562306753 ], [ -70.343274885413209, -27.387736221218383 ], [ -70.344075718398912, -27.386860410929259 ], [ -70.343827450533539, -27.384940155147547 ], [ -70.34603117342273, -27.383975006258176 ], [ -70.347364742808409, -27.384218619536089 ], [ -70.348244957923939, -27.383739653026485 ], [ -70.347900707866856, -27.383467451645593 ], [ -70.347423018817267, -27.383089594025659 ], [ -70.34670518071718, -27.381850107048148 ], [ -70.345481785320018, -27.381661468369028 ], [ -70.346875026639793, -27.379351300280259 ], [ -70.345296734140618, -27.377861636176004 ], [ -70.342910422024076, -27.375945997467134 ], [ -70.34353649468845, -27.374593105259695 ], [ -70.343524492286321, -27.373730627193641 ], [ -70.344404644058514, -27.373251686616264 ], [ -70.345071361816053, -27.373373505220069 ], [ -70.345339024914878, -27.372707419613587 ], [ -70.341864880987544, -27.371191301452562 ], [ -70.344478194664561, -27.368134437535158 ], [ -70.344142658619887, -27.365901133052827 ], [ -70.344135604993411, -27.36585553527275 ], [ -70.343796191095478, -27.365736606890096 ], [ -70.342850342170735, -27.365568371260704 ], [ -70.342466498309349, -27.365408262455716 ], [ -70.342232892925992, -27.365310964894611 ], [ -70.342231719370574, -27.365310434688439 ], [ -70.342162094039523, -27.365309389453166 ], [ -70.341891847417187, -27.36530530930597 ], [ -70.341324881556318, -27.365480155022656 ], [ -70.341135029094801, -27.365623579138479 ], [ -70.340768622848486, -27.365900281302878 ], [ -70.340307764295233, -27.366336726892644 ], [ -70.338323547717181, -27.368275171544823 ], [ -70.337816465356383, -27.368772609250708 ], [ -70.336958520214694, -27.369614365504809 ], [ -70.336653024396881, -27.3699109602676 ], [ -70.336652859840385, -27.369911142340616 ], [ -70.335993846242047, -27.370414541095961 ], [ -70.335180017589735, -27.371099734610226 ], [ -70.336257882711408, -27.372655952760869 ], [ -70.336559119379913, -27.376111660859465 ], [ -70.336630772468311, -27.377772358320449 ], [ -70.338082770337834, -27.388460181716216 ], [ -70.339540706081607, -27.389118810449286 ], [ -70.34012364888099, -27.388778932294752 ], [ -70.340376946823781, -27.388631289428353 ] ] ] } },
{ "type": "Feature", "properties": { "zona": "45" }, "geometry": { "type": "Polygon", "coordinates": [ [ [ -70.307808566491531, -27.378069644491831 ], [ -70.307470704814548, -27.377877240833527 ], [ -70.30510470973357, -27.376729760640771 ], [ -70.30506721821763, -27.376575875520778 ], [ -70.304151358498331, -27.375889970500261 ], [ -70.303203345701235, -27.374593733407448 ], [ -70.302167774783825, -27.373970933493226 ], [ -70.300493539684695, -27.372961313628753 ], [ -70.298129222721798, -27.370563740903531 ], [ -70.298062517055783, -27.371134737131566 ], [ -70.298274779496694, -27.371684186193495 ], [ -70.300312140899223, -27.375309845396039 ], [ -70.298334927954983, -27.377872651853171 ], [ -70.298792441217145, -27.379230255224993 ], [ -70.297560175113446, -27.380281029553895 ], [ -70.29827142871666, -27.38125370794257 ], [ -70.298542726059694, -27.382629469085845 ], [ -70.301319552144776, -27.384704868594344 ], [ -70.303334425215823, -27.382854275857792 ], [ -70.305406189071306, -27.381167737316837 ], [ -70.305656200159234, -27.381135164673406 ], [ -70.306399743331596, -27.381528369351763 ], [ -70.306824246860344, -27.381827089415459 ], [ -70.306824327050975, -27.381826817917336 ], [ -70.307372831192154, -27.379091105078171 ], [ -70.307808566491531, -27.378069644491831 ] ] ] } },
{ "type": "Feature", "properties": { "zona": "46" }, "geometry": { "type": "Polygon", "coordinates": [ [ [ -70.306824246860344, -27.381827089415459 ], [ -70.306399743331596, -27.381528369351763 ], [ -70.305656200159234, -27.381135164673406 ], [ -70.305406189071306, -27.381167737316837 ], [ -70.303334425215823, -27.382854275857792 ], [ -70.301319552144776, -27.384704868594344 ], [ -70.304912297664586, -27.387438618021271 ], [ -70.306195799456475, -27.385936415898009 ], [ -70.306595394875657, -27.38419953266234 ], [ -70.306824246860344, -27.381827089415459 ] ] ] } },
{ "type": "Feature", "properties": { "zona": "47" }, "geometry": { "type": "Polygon", "coordinates": [ [ [ -70.304912297664586, -27.387438618021271 ], [ -70.31034622928712, -27.391188607125851 ], [ -70.312952421976263, -27.389046865486353 ], [ -70.31317545882446, -27.386637920565903 ], [ -70.308545365148646, -27.383275699958435 ], [ -70.306195799456475, -27.385936415898009 ], [ -70.304912297664586, -27.387438618021271 ] ] ] } },
{ "type": "Feature", "properties": { "zona": "48" }, "geometry": { "type": "Polygon", "coordinates": [ [ [ -70.321908699337598, -27.403412971075131 ], [ -70.323154105962686, -27.402596415132368 ], [ -70.323957036711946, -27.401853450749361 ], [ -70.324392250256906, -27.401249166506773 ], [ -70.324454340916773, -27.400385440987161 ], [ -70.324890505057823, -27.399847569099112 ], [ -70.326068271230497, -27.399496680877576 ], [ -70.317600536966538, -27.390352260591516 ], [ -70.317317251565967, -27.389520586707679 ], [ -70.31317545882446, -27.386637920565903 ], [ -70.312952421976263, -27.389046865486353 ], [ -70.31034622928712, -27.391188607125851 ], [ -70.312477098598762, -27.392900990588316 ], [ -70.313786677521165, -27.394370366364978 ], [ -70.321908699337598, -27.403412971075131 ] ] ] } },
{ "type": "Feature", "properties": { "zona": "51" }, "geometry": { "type": "Polygon", "coordinates": [ [ [ -70.29827142871666, -27.38125370794257 ], [ -70.29636116908874, -27.378715338850963 ], [ -70.294367156088015, -27.380485317542426 ], [ -70.293679569167381, -27.380826879997784 ], [ -70.290835992129175, -27.37926563815704 ], [ -70.289795806727327, -27.379874963939503 ], [ -70.289797339862417, -27.379877747499581 ], [ -70.289797569043159, -27.379875940393223 ], [ -70.291719878314453, -27.383426436895785 ], [ -70.293102192642252, -27.385977704730259 ], [ -70.300841661166288, -27.39184306257707 ], [ -70.304912297664586, -27.387438618021271 ], [ -70.301319552144776, -27.384704868594344 ], [ -70.298542726059694, -27.382629469085845 ], [ -70.29827142871666, -27.38125370794257 ] ] ] } },
{ "type": "Feature", "properties": { "zona": "50" }, "geometry": { "type": "Polygon", "coordinates": [ [ [ -70.300841661166288, -27.39184306257707 ], [ -70.305531223036169, -27.395626888866882 ], [ -70.31034622928712, -27.391188607125851 ], [ -70.304912297664586, -27.387438618021271 ], [ -70.300841661166288, -27.39184306257707 ] ] ] } },
{ "type": "Feature", "properties": { "zona": "49" }, "geometry": { "type": "Polygon", "coordinates": [ [ [ -70.321908699337598, -27.403412971075131 ], [ -70.313786677521165, -27.394370366364978 ], [ -70.312477098598762, -27.392900990588316 ], [ -70.31034622928712, -27.391188607125851 ], [ -70.305532213028357, -27.395625977112012 ], [ -70.309720461675667, -27.398835578797573 ], [ -70.309743960139116, -27.398855212857882 ], [ -70.310281650889422, -27.399304745417332 ], [ -70.310984799929315, -27.399513832232923 ], [ -70.311750231526659, -27.400908197463984 ], [ -70.311753014182287, -27.400910788503342 ], [ -70.31257490048921, -27.401681901713314 ], [ -70.312932935520337, -27.402064164021066 ], [ -70.313451805804178, -27.402562955858279 ], [ -70.314084827412643, -27.403116082675783 ], [ -70.318264409578759, -27.407187997052461 ], [ -70.319060207401378, -27.406316432758501 ], [ -70.320093851827551, -27.405831222606842 ], [ -70.321061824051768, -27.406346399232657 ], [ -70.321425810610762, -27.405942337763516 ], [ -70.321706938363491, -27.404876005595646 ], [ -70.321031949910889, -27.404157074686957 ], [ -70.321165160465981, -27.403093227443673 ], [ -70.321908699337598, -27.403412971075131 ] ] ] } },
{ "type": "Feature", "properties": { "zona": "52" }, "geometry": { "type": "Polygon", "coordinates": [ [ [ -70.291719878314453, -27.383426436895785 ], [ -70.289797569043159, -27.379875940393223 ], [ -70.289797339862417, -27.379877747499581 ], [ -70.289068574765238, -27.38520531455632 ], [ -70.288853668417019, -27.387281771301943 ], [ -70.284816168266573, -27.392379565701809 ], [ -70.285907144878522, -27.393142317978295 ], [ -70.286296400239493, -27.394711954866729 ], [ -70.290946564848966, -27.395745397468399 ], [ -70.291195027206513, -27.395963847162154 ], [ -70.291333347797163, -27.396284395189173 ], [ -70.292883073833821, -27.395879170093725 ], [ -70.295059517338075, -27.39763092993914 ], [ -70.297720489103, -27.394264455789749 ], [ -70.299942073053927, -27.392928029299707 ], [ -70.300841661166288, -27.39184306257707 ], [ -70.293102192642252, -27.385977704730259 ], [ -70.291719878314453, -27.383426436895785 ] ] ] } },
{ "type": "Feature", "properties": { "zona": "53" }, "geometry": { "type": "Polygon", "coordinates": [ [ [ -70.295059517338075, -27.39763092993914 ], [ -70.299477214432628, -27.401160541258029 ], [ -70.301778685899649, -27.398988446735849 ], [ -70.305489801133746, -27.395593433229251 ], [ -70.300841661166288, -27.39184306257707 ], [ -70.299942073053927, -27.392928029299707 ], [ -70.297720489103, -27.394264455789749 ], [ -70.295059517338075, -27.39763092993914 ] ] ] } },
{ "type": "Feature", "properties": { "zona": "54" }, "geometry": { "type": "Polygon", "coordinates": [ [ [ -70.312932935520337, -27.402064164021066 ], [ -70.31257490048921, -27.401681901713314 ], [ -70.311753014182287, -27.400910788503342 ], [ -70.311750231526659, -27.400908197463984 ], [ -70.310984799929315, -27.399513832232923 ], [ -70.310281650889422, -27.399304745417332 ], [ -70.309743960139116, -27.398855212857882 ], [ -70.309720461675667, -27.398835578797573 ], [ -70.305532213028357, -27.395625977112012 ], [ -70.305489801133746, -27.395593433229251 ], [ -70.301778685899649, -27.398988446735849 ], [ -70.299477214432628, -27.401160541258029 ], [ -70.30605879409508, -27.406249378228036 ], [ -70.312821816315306, -27.4115867972641 ], [ -70.320700237547882, -27.417765880812869 ], [ -70.321121933504841, -27.416166385631218 ], [ -70.321859114299087, -27.416021679026592 ], [ -70.322215974176331, -27.415086932670004 ], [ -70.32115816723919, -27.414339867691758 ], [ -70.321460588706685, -27.413904712121258 ], [ -70.321305506970432, -27.413376424253748 ], [ -70.321369454039953, -27.412645438445665 ], [ -70.320341210380533, -27.413126637036989 ], [ -70.319437056988477, -27.41188047322283 ], [ -70.31942356406023, -27.41088525136168 ], [ -70.32075383887117, -27.410863722139148 ], [ -70.321111648249939, -27.409995211459357 ], [ -70.320514954895927, -27.409606749024132 ], [ -70.319480215734757, -27.40962349376418 ], [ -70.318441120901085, -27.409308518752262 ], [ -70.318129260039839, -27.40811919486956 ], [ -70.318264409578759, -27.407187997052461 ], [ -70.314084827412643, -27.403116082675783 ], [ -70.313451805804178, -27.402562955858279 ], [ -70.312932935520337, -27.402064164021066 ] ] ] } },
{ "type": "Feature", "properties": { "zona": "57" }, "geometry": { "type": "Polygon", "coordinates": [ [ [ -70.285283763738988, -27.392706473214954 ], [ -70.284753661096687, -27.392324908805499 ], [ -70.28423608320999, -27.393019721305489 ], [ -70.283585590992672, -27.393701585964045 ], [ -70.28152153410376, -27.395693415571468 ], [ -70.28443226999282, -27.398449750445707 ], [ -70.285989292124739, -27.399851594104838 ], [ -70.290382785714783, -27.403991714500336 ], [ -70.295059517338075, -27.39763092993914 ], [ -70.292883073833821, -27.395879170093725 ], [ -70.291333347797163, -27.396284395189173 ], [ -70.291195027206513, -27.395963847162154 ], [ -70.290946564848966, -27.395745397468399 ], [ -70.288962350614995, -27.395294541896956 ], [ -70.286296400239493, -27.394711954866729 ], [ -70.285907144878522, -27.393142317978295 ], [ -70.285283763738988, -27.392706473214954 ] ] ] } },
{ "type": "Feature", "properties": { "zona": "56" }, "geometry": { "type": "Polygon", "coordinates": [ [ [ -70.290382785714783, -27.403991714500336 ], [ -70.293395262546966, -27.406809810057087 ], [ -70.299477214432628, -27.401160541258029 ], [ -70.295059517338075, -27.39763092993914 ], [ -70.290382785714783, -27.403991714500336 ] ] ] } },
{ "type": "Feature", "properties": { "zona": "55" }, "geometry": { "type": "Polygon", "coordinates": [ [ [ -70.320700237547882, -27.417765880812869 ], [ -70.312821816315306, -27.4115867972641 ], [ -70.30605879409508, -27.406249378228036 ], [ -70.299477214432628, -27.401160541258029 ], [ -70.293395262546966, -27.406809810057087 ], [ -70.294185652198465, -27.40715354526407 ], [ -70.296238479087265, -27.409139989324387 ], [ -70.297037313317077, -27.409261977833463 ], [ -70.298892128023169, -27.410840401859872 ], [ -70.314519909217623, -27.425364275047478 ], [ -70.314883193858748, -27.424893903589165 ], [ -70.312580812913467, -27.422524653754415 ], [ -70.311941031272994, -27.420561817109746 ], [ -70.311768051588501, -27.418706583047975 ], [ -70.31264055375263, -27.417630821282557 ], [ -70.312730644073199, -27.418823689247105 ], [ -70.313808667544663, -27.421991540851693 ], [ -70.314982274574746, -27.421309026611596 ], [ -70.314421593931542, -27.418132787883135 ], [ -70.313815860041942, -27.417080966679539 ], [ -70.314628848175147, -27.417067797457044 ], [ -70.315064253146005, -27.416463538933243 ], [ -70.315688842357332, -27.418908611766287 ], [ -70.316208037969929, -27.419032946305339 ], [ -70.317710618129098, -27.420800343451198 ], [ -70.320055828917376, -27.41930241481165 ], [ -70.320804007209134, -27.419953959832309 ], [ -70.321525868224114, -27.418681386625625 ], [ -70.320700237547882, -27.417765880812869 ] ] ] } },
{ "type": "Feature", "properties": { "zona": "60" }, "geometry": { "type": "Polygon", "coordinates": [ [ [ -70.291981355880822, -27.426124991801338 ], [ -70.29338931498539, -27.42636787908453 ], [ -70.294864061920876, -27.426078837275707 ], [ -70.295296870038371, -27.425275573053948 ], [ -70.296181075049915, -27.425062308173175 ], [ -70.296375221902068, -27.423002019526631 ], [ -70.297726274686596, -27.421876229889595 ], [ -70.298221250126218, -27.422839808990801 ], [ -70.30045648751539, -27.424131007878259 ], [ -70.305104111968546, -27.423392654880416 ], [ -70.306307410544704, -27.42437646327463 ], [ -70.308524784130995, -27.424863853679689 ], [ -70.310610576243988, -27.426024615695457 ], [ -70.311270394655836, -27.425615811679958 ], [ -70.312462951246843, -27.426326574115677 ], [ -70.313266120904572, -27.4255836652002 ], [ -70.314166515233566, -27.426564480793242 ], [ -70.314519909217623, -27.425364275047478 ], [ -70.298892128023169, -27.410840401859872 ], [ -70.297037313317077, -27.409261977833463 ], [ -70.296238479087265, -27.409139989324387 ], [ -70.294185652198465, -27.40715354526407 ], [ -70.293395262546966, -27.406809810057087 ], [ -70.288854976844036, -27.411018106096254 ], [ -70.28682650330596, -27.412068298441685 ], [ -70.284861194480214, -27.413102537652755 ], [ -70.284364401557895, -27.413164874365915 ], [ -70.282512712151416, -27.412550897652345 ], [ -70.280895225487029, -27.413837016522347 ], [ -70.284094773653507, -27.416282395392443 ], [ -70.287450971941652, -27.420219328594264 ], [ -70.291981355880822, -27.426124991801338 ] ] ] } },
{ "type": "Feature", "properties": { "zona": "58" }, "geometry": { "type": "Polygon", "coordinates": [ [ [ -70.270289004928401, -27.402779493295444 ], [ -70.271374371414382, -27.404712674246525 ], [ -70.271639018651186, -27.405493987562924 ], [ -70.271973507606262, -27.406481966116594 ], [ -70.272019084652911, -27.406616563531159 ], [ -70.272853747808256, -27.40822377997797 ], [ -70.273272991075729, -27.409466115850858 ], [ -70.274007111802291, -27.410201079481169 ], [ -70.274746523530126, -27.410633204064084 ], [ -70.275903826259864, -27.411155089695093 ], [ -70.275904662288042, -27.411155262543403 ], [ -70.277633304175453, -27.411569019924301 ], [ -70.277687582693332, -27.411581969685216 ], [ -70.282512712151416, -27.412550897652345 ], [ -70.284756207263612, -27.410833469311438 ], [ -70.285602774467023, -27.409696740175722 ], [ -70.290382785714783, -27.403991714500336 ], [ -70.285989292124739, -27.399851594104838 ], [ -70.284428563470712, -27.398446535605178 ], [ -70.281521615406064, -27.395693234325751 ], [ -70.280544630904899, -27.396044252215152 ], [ -70.278840284873112, -27.394996660252509 ], [ -70.275186069396867, -27.394068596553765 ], [ -70.274215011875896, -27.395038988927851 ], [ -70.275223710703344, -27.397348731603429 ], [ -70.273266702227062, -27.397988790543462 ], [ -70.273048783858215, -27.398330117906951 ], [ -70.270065648431043, -27.397904802888959 ], [ -70.269491580358206, -27.397570690645988 ], [ -70.268913234017347, -27.396868937931568 ], [ -70.2668341999359, -27.397934190727536 ], [ -70.267652537932605, -27.398993054862736 ], [ -70.267670934490667, -27.399019330795305 ], [ -70.268611350119144, -27.400360372538731 ], [ -70.270289004928401, -27.402779493295444 ] ] ] } },
{ "type": "Feature", "properties": { "zona": "62" }, "geometry": { "type": "Polygon", "coordinates": [ [ [ -70.273417975935075, -27.414036372252244 ], [ -70.273732057728083, -27.414332138164283 ], [ -70.273746491195396, -27.414339767741151 ], [ -70.275505319368008, -27.415271937007411 ], [ -70.277871167696517, -27.415605312596778 ], [ -70.27788035713634, -27.415606582105351 ], [ -70.279356798927992, -27.415168960442177 ], [ -70.279357790350204, -27.415168139101844 ], [ -70.280895225487029, -27.413837016522347 ], [ -70.282512712151416, -27.412550897652345 ], [ -70.277687582693332, -27.411581969685216 ], [ -70.277633304175453, -27.411569019924301 ], [ -70.275904662288042, -27.411155262543403 ], [ -70.275883066238691, -27.411184791184056 ], [ -70.275683681530978, -27.411456460943121 ], [ -70.275411226117484, -27.411328091943933 ], [ -70.274540699884639, -27.410918107522154 ], [ -70.273215781625552, -27.41285649419898 ], [ -70.272799643906225, -27.413465325239141 ], [ -70.273417975935075, -27.414036372252244 ] ] ] } },
{ "type": "Feature", "properties": { "zona": "59" }, "geometry": { "type": "Polygon", "coordinates": [ [ [ -70.290382785714783, -27.403991714500336 ], [ -70.285602774467023, -27.409696740175722 ], [ -70.284756207263612, -27.410833469311438 ], [ -70.282512712151416, -27.412550897652345 ], [ -70.284364401557895, -27.413164874365915 ], [ -70.284861194480214, -27.413102537652755 ], [ -70.28682650330596, -27.412068298441685 ], [ -70.288854976844036, -27.411018106096254 ], [ -70.293395262546966, -27.406809810057087 ], [ -70.290382785714783, -27.403991714500336 ] ] ] } },
{ "type": "Feature", "properties": { "zona": "63" }, "geometry": { "type": "Polygon", "coordinates": [ [ [ -70.271639018651186, -27.405493987562924 ], [ -70.271374371414382, -27.404712674246525 ], [ -70.270289004928401, -27.402779493295444 ], [ -70.268611350119144, -27.400360372538731 ], [ -70.267670934490667, -27.399019330795305 ], [ -70.2668341999359, -27.397934190727536 ], [ -70.262927184940168, -27.400268824000729 ], [ -70.265829465290537, -27.40427306065288 ], [ -70.270515242942253, -27.410659369214923 ], [ -70.270813085652094, -27.411053571845258 ], [ -70.270808074940575, -27.411060295969673 ], [ -70.271405099210767, -27.411877656962233 ], [ -70.272090841416357, -27.412662889148177 ], [ -70.272796198110896, -27.413470320409086 ], [ -70.272799643906225, -27.413465325239141 ], [ -70.273215781625552, -27.41285649419898 ], [ -70.274540699884639, -27.410918107522154 ], [ -70.275411226117484, -27.411328091943933 ], [ -70.275683681530978, -27.411456460943121 ], [ -70.275883066238691, -27.411184791184056 ], [ -70.275904662288042, -27.411155262543403 ], [ -70.275903826259864, -27.411155089695093 ], [ -70.274746523530126, -27.410633204064084 ], [ -70.274007111802291, -27.410201079481169 ], [ -70.273272991075729, -27.409466115850858 ], [ -70.272853747808256, -27.40822377997797 ], [ -70.272019084652911, -27.406616563531159 ], [ -70.271973507606262, -27.406481966116594 ], [ -70.271639018651186, -27.405493987562924 ] ] ] } },
{ "type": "Feature", "properties": { "zona": "64" }, "geometry": { "type": "Polygon", "coordinates": [ [ [ -70.270808074940575, -27.411060295969673 ], [ -70.270515242942253, -27.410659369214923 ], [ -70.27027744393888, -27.410344579866514 ], [ -70.265829465290537, -27.40427306065288 ], [ -70.262927354792936, -27.400269093211758 ], [ -70.260489162854412, -27.401605366963228 ], [ -70.253673085637899, -27.403651759654867 ], [ -70.258135014023267, -27.408113865207369 ], [ -70.262742692539391, -27.412540382065067 ], [ -70.263813083791803, -27.412376086370024 ], [ -70.266607400996321, -27.412938073434837 ], [ -70.267477277145275, -27.412787935240768 ], [ -70.269465337805073, -27.412890511739654 ], [ -70.26978392100024, -27.412428692471558 ], [ -70.270808074940575, -27.411060295969673 ] ] ] } },
{ "type": "Feature", "properties": { "zona": "65" }, "geometry": { "type": "Polygon", "coordinates": [ [ [ -70.269785400469587, -27.412426783760282 ], [ -70.269451690122779, -27.412871322627041 ], [ -70.269782689656921, -27.412430418424286 ], [ -70.269458279679867, -27.412878663081464 ], [ -70.269469176128922, -27.412890657290678 ], [ -70.26947059181407, -27.412890463902077 ], [ -70.274663045570023, -27.418640522428067 ], [ -70.279398604806275, -27.415156122420704 ], [ -70.279357790350204, -27.415168139101844 ], [ -70.279356798927992, -27.415168960442177 ], [ -70.27788035713634, -27.415606582105351 ], [ -70.277871167696517, -27.415605312596778 ], [ -70.275505319368008, -27.415271937007411 ], [ -70.273746491195396, -27.414339767741151 ], [ -70.273732057728083, -27.414332138164283 ], [ -70.273417975935075, -27.414036372252244 ], [ -70.272799643906225, -27.413465325239141 ], [ -70.272796198110896, -27.413470320409086 ], [ -70.272090841416357, -27.412662889148177 ], [ -70.271405099210767, -27.411877656962233 ], [ -70.270808074940575, -27.411060295969673 ], [ -70.269785400469587, -27.412426783760282 ] ] ] } },
{ "type": "Feature", "properties": { "zona": "61" }, "geometry": { "type": "Polygon", "coordinates": [ [ [ -70.269374040953309, -27.426358979252452 ], [ -70.269211195184013, -27.426875243929668 ], [ -70.27519070228908, -27.424551260086904 ], [ -70.280037913610087, -27.428638069768347 ], [ -70.284752220204666, -27.426936007437657 ], [ -70.285710945091836, -27.427154233048476 ], [ -70.286238923903099, -27.427942017551846 ], [ -70.287500045308832, -27.428253644734077 ], [ -70.287260554300232, -27.426930371833063 ], [ -70.288868948773754, -27.425577478328012 ], [ -70.289251804110876, -27.426566765036938 ], [ -70.29043706535505, -27.42674694330227 ], [ -70.29089126575073, -27.427535933983989 ], [ -70.292066790592003, -27.426986256167794 ], [ -70.291981355880822, -27.426124991801338 ], [ -70.287450971941652, -27.420219328594264 ], [ -70.284094773653507, -27.416282395392443 ], [ -70.280895225487029, -27.413837016522347 ], [ -70.279370809852054, -27.415168831871238 ], [ -70.274665370440047, -27.418639598678222 ], [ -70.273983326668144, -27.419199151409522 ], [ -70.272318528228325, -27.420668181068383 ], [ -70.271805223987599, -27.421120411221516 ], [ -70.271064007079431, -27.421781569255817 ], [ -70.270507204564765, -27.422792292920921 ], [ -70.27026671504548, -27.42322876416015 ], [ -70.270168600904398, -27.423839292008935 ], [ -70.269374040953309, -27.426358979252452 ] ] ] } },
{ "type": "Feature", "properties": { "zona": "66" }, "geometry": { "type": "Polygon", "coordinates": [ [ [ -70.273983326668144, -27.419199151409522 ], [ -70.273929360358125, -27.419068331940149 ], [ -70.27203919919593, -27.420145479556918 ], [ -70.270373366496955, -27.418772545772164 ], [ -70.269301354376623, -27.417829187328632 ], [ -70.268036465358762, -27.416603559695371 ], [ -70.266795590547929, -27.413481380185129 ], [ -70.266607400996321, -27.412938073434837 ], [ -70.263813083791803, -27.412376086370024 ], [ -70.262742692539391, -27.412540382065067 ], [ -70.258135014023267, -27.408113865207369 ], [ -70.253673085637899, -27.403651759654867 ], [ -70.245726551098301, -27.404743155371904 ], [ -70.245434513393292, -27.422377251406107 ], [ -70.259200143880321, -27.426734196628054 ], [ -70.265564324363709, -27.426348769489898 ], [ -70.269203870340505, -27.426898504686164 ], [ -70.269374040953309, -27.426358979252452 ], [ -70.270168600904398, -27.423839292008935 ], [ -70.27026671504548, -27.42322876416015 ], [ -70.270507204564765, -27.422792292920921 ], [ -70.271064007079431, -27.421781569255817 ], [ -70.271805223987599, -27.421120411221516 ], [ -70.272318528228325, -27.420668181068383 ], [ -70.273983326668144, -27.419199151409522 ] ] ] } },
{ "type": "Feature", "properties": { "zona": "1" }, "geometry": { "type": "Polygon", "coordinates": [ [ [ -70.344330639995604, -27.351185295620642 ], [ -70.344338270822448, -27.351016457267939 ], [ -70.344423386372895, -27.350851385334298 ], [ -70.344623621167088, -27.350458771116799 ], [ -70.344921080710918, -27.350075689084203 ], [ -70.34469601398041, -27.349792490522308 ], [ -70.344577357749017, -27.349644271648827 ], [ -70.343998571145093, -27.349482071324822 ], [ -70.342899899746428, -27.349175417375097 ], [ -70.341304565932404, -27.347973475771564 ], [ -70.341239672378094, -27.348412798015843 ], [ -70.341527365680889, -27.348989701863783 ], [ -70.34096594247049, -27.348995094266947 ], [ -70.340667350972538, -27.348966644981836 ], [ -70.340405817746642, -27.349094511106838 ], [ -70.340142126076415, -27.349050022421203 ], [ -70.339965738526232, -27.348973379207301 ], [ -70.339562257083642, -27.348977250311382 ], [ -70.339159068816727, -27.349012433750637 ], [ -70.338474854158022, -27.34900338061107 ], [ -70.337952095332511, -27.34930603071145 ], [ -70.337219256735267, -27.349641916910443 ], [ -70.336960998175385, -27.349911074938653 ], [ -70.335353088753479, -27.35056849044533 ], [ -70.335427961862138, -27.35123020057403 ], [ -70.340176930888632, -27.36039538738239 ], [ -70.340205520365743, -27.360741125961805 ], [ -70.3412970665362, -27.3618793260923 ], [ -70.34445576644724, -27.359474954302083 ], [ -70.345686967179603, -27.358343920594567 ], [ -70.345287124417723, -27.357844638701007 ], [ -70.344981251359982, -27.357484696483233 ], [ -70.34495605900301, -27.356489859023075 ], [ -70.344863412119224, -27.355983554751113 ], [ -70.344837270885819, -27.355337807531324 ], [ -70.344410305794611, -27.353550936776699 ], [ -70.344720541169679, -27.35243744062312 ], [ -70.344717694730306, -27.352429526161092 ], [ -70.344401663095709, -27.351558241023291 ], [ -70.34435630660191, -27.35139866694896 ], [ -70.344325834769236, -27.351291293740573 ], [ -70.344330639995604, -27.351185295620642 ] ] ] } },
{ "type": "Feature", "properties": { "zona": "68" }, "geometry": { "type": "Polygon", "coordinates": [ [ [ -70.341540874722398, -27.394788744203538 ], [ -70.340794479793743, -27.394701792075097 ], [ -70.34078752061609, -27.394691751177234 ], [ -70.340564884863454, -27.394368275725157 ], [ -70.338322665151779, -27.395571516892339 ], [ -70.338308761846505, -27.395566506145922 ], [ -70.338443473199348, -27.396441703874391 ], [ -70.338380525684499, -27.397239018757514 ], [ -70.33906112716511, -27.398355985390456 ], [ -70.340163188595511, -27.397873492887367 ], [ -70.341356412804245, -27.398650249321221 ], [ -70.342489723913062, -27.400423368669944 ], [ -70.344444084620207, -27.402780320562911 ], [ -70.346708016545151, -27.406127430797167 ], [ -70.348219131561265, -27.408491491048736 ], [ -70.350558153325792, -27.411903684770412 ], [ -70.35440772364835, -27.417613490751833 ], [ -70.359513835550871, -27.417993908075985 ], [ -70.358076147017826, -27.415628816692763 ], [ -70.356778008985913, -27.413423622532452 ], [ -70.354152586376671, -27.40992028356413 ], [ -70.351059734163911, -27.405458745544692 ], [ -70.348275737207274, -27.401921170503897 ], [ -70.347120248041122, -27.400205442578212 ], [ -70.345404163585926, -27.397389574491129 ], [ -70.343882863638967, -27.39506149144631 ], [ -70.341540874722398, -27.394788744203538 ] ] ] } },
{ "type": "Feature", "properties": { "zona": "69" }, "geometry": { "type": "Polygon", "coordinates": [ [ [ -70.372497212456864, -27.335313974841981 ], [ -70.372697653415813, -27.340528438407475 ], [ -70.372830606691593, -27.345925320517864 ], [ -70.372804922763862, -27.345944705584774 ], [ -70.372805059503804, -27.345949036146823 ], [ -70.386894403491581, -27.335337288630978 ], [ -70.389236273493339, -27.33429096832824 ], [ -70.391127004087323, -27.332794254227657 ], [ -70.396821436186258, -27.330122685250338 ], [ -70.404601011977476, -27.321574679011444 ], [ -70.402762856675253, -27.313894742386378 ], [ -70.391578068785009, -27.32347140063095 ], [ -70.372497212456864, -27.335313974841981 ] ] ] } }
]
}
